{"type":"FeatureCollection","features":[{"type":"Feature","geometry":{"type":"LineString","coordinates":[[-157.793945,21.383856],[-157.794326,21.384168],[-157.800849,21.385159],[-157.803288,21.386153],[-157.8075,21.388419],[-157.810694,21.391334],[-157.81189,21.393493],[-157.815025,21.397455],[-157.815667,21.401209],[-157.816197,21.402125],[-157.817642,21.403475]]},"properties":{"Voltage_kV":138}},{"type":"Feature","geometry":{"type":"LineString","coordinates":[[-157.817642,21.403475],[-157.816845,21.403927]]},"properties":{"Voltage_kV":138}},{"type":"Feature","geometry":{"type":"LineString","coordinates":[[-157.816845,21.403927],[-157.818434,21.405143],[-157.820397,21.405779],[-157.822562,21.408627],[-157.82515,21.41282],[-157.826709,21.415853],[-157.829986,21.422005],[-157.827238,21.42614],[-157.83101,21.424576],[-157.837778,21.424722],[-157.843333,21.424167],[-157.846067,21.422543],[-157.845696,21.420328],[-157.847314,21.415587],[-157.848468,21.411774],[-157.850604,21.402416],[-157.862314,21.399162],[-157.870471,21.39328],[-157.873677,21.390744],[-157.874151,21.385052],[-157.876221,21.384046],[-157.880069,21.382932],[-157.881604,21.380155],[-157.882039,21.379291],[-157.882482,21.379184],[-157.882639,21.37954]]},"properties":{"Voltage_kV":138}},{"type":"Feature","geometry":{"type":"LineString","coordinates":[[-157.853108,21.300885],[-157.852623,21.300647],[-157.853154,21.299852],[-157.852719,21.298988],[-157.852011,21.297933],[-157.851141,21.297087],[-157.849974,21.296341],[-157.850212,21.29582],[-157.849395,21.29486],[-157.849267,21.294605]]},"properties":{"Voltage_kV":138}},{"type":"Feature","geometry":{"type":"LineString","coordinates":[[-157.849267,21.294605],[-157.849041,21.294605],[-157.842495,21.292016],[-157.838097,21.290139],[-157.835971,21.290415],[-157.835199,21.290405],[-157.830725,21.288798],[-157.827484,21.28752],[-157.826268,21.287318],[-157.823764,21.287451],[-157.823019,21.286821],[-157.823134,21.286715]]},"properties":{"Voltage_kV":138}},{"type":"Feature","geometry":{"type":"LineString","coordinates":[[-157.867304,21.317746],[-157.867466,21.317382],[-157.866467,21.315901],[-157.864144,21.314903],[-157.864096,21.31276],[-157.862072,21.309139],[-157.860517,21.30727],[-157.859442,21.305997],[-157.855852,21.303952],[-157.855426,21.30332],[-157.854467,21.301512],[-157.853108,21.300885]]},"properties":{"Voltage_kV":138}},{"type":"Feature","geometry":{"type":"LineString","coordinates":[[-157.867304,21.317746],[-157.867662,21.317407],[-157.866574,21.315844],[-157.864332,21.314821],[-157.864336,21.313345],[-157.864211,21.312729],[-157.862854,21.310224],[-157.862165,21.309076],[-157.860997,21.307663],[-157.863234,21.30602],[-157.86303,21.305541],[-157.863345,21.305375]]},"properties":{"Voltage_kV":138}},{"type":"Feature","geometry":{"type":"LineString","coordinates":[[-158.106939,21.577094],[-158.105631,21.57645],[-158.101513,21.574549],[-158.091786,21.57176],[-158.081138,21.56799],[-158.078982,21.566814],[-158.077204,21.565261],[-158.071778,21.563217],[-158.070051,21.56236],[-158.068376,21.56098],[-158.066006,21.558119],[-158.06433,21.556729],[-158.048512,21.550721],[-158.046346,21.548636],[-158.038497,21.524889],[-158.03772,21.522252],[-158.038104,21.520371],[-158.040523,21.514805],[-158.0406,21.513077],[-158.03964,21.511081],[-158.03369,21.505707],[-158.030158,21.502636],[-158.028618,21.501006],[-158.026223,21.495776],[-158.024918,21.493025],[-158.024589,21.492637]]},"properties":{"Voltage_kV":46}},{"type":"Feature","geometry":{"type":"LineString","coordinates":[[-157.96043,21.38926],[-157.958682,21.392189],[-157.951959,21.390906],[-157.947654,21.407929],[-157.943921,21.409926],[-157.935155,21.411157],[-157.933542,21.411172],[-157.932509,21.42525],[-157.935258,21.428363],[-157.938816,21.434299],[-157.944597,21.437692],[-157.950872,21.444948],[-157.956831,21.441024],[-157.963036,21.439565],[-157.966226,21.439311],[-157.971898,21.448142],[-157.979702,21.448041],[-157.982482,21.44737],[-158.000491,21.440084],[-158.008155,21.428102],[-158.010341,21.426428],[-158.013931,21.426366],[-158.026432,21.424848],[-158.029487,21.423951],[-158.048841,21.411467],[-158.074894,21.394184],[-158.080815,21.382218],[-158.101394,21.365884],[-158.103417,21.361269],[-158.120506,21.356569],[-158.127012,21.355976],[-158.128224,21.35673]]},"properties":{"Voltage_kV":138}},{"type":"Feature","geometry":{"type":"LineString","coordinates":[[-157.786696,21.312879],[-157.787171,21.313637],[-157.784518,21.317661],[-157.783784,21.32024],[-157.779976,21.321374],[-157.775312,21.326893],[-157.77218,21.333387],[-157.769029,21.33959],[-157.770835,21.351695],[-157.771959,21.354546],[-157.773686,21.358664],[-157.775072,21.361721],[-157.777957,21.368269],[-157.783606,21.370626],[-157.788949,21.371602],[-157.794234,21.375304],[-157.793978,21.377934],[-157.793485,21.383335],[-157.793914,21.383887]]},"properties":{"Voltage_kV":138}},{"type":"Feature","geometry":{"type":"LineString","coordinates":[[-157.793914,21.383887],[-157.793385,21.383795],[-157.792033,21.382817],[-157.792177,21.38052],[-157.791897,21.378935],[-157.790201,21.377035],[-157.789155,21.37256],[-157.786912,21.372019],[-157.783306,21.371052],[-157.780137,21.369649],[-157.77761,21.368544],[-157.77716,21.367524],[-157.775975,21.364827],[-157.774705,21.362061],[-157.774211,21.361012],[-157.773184,21.358753],[-157.77124,21.35491],[-157.77014,21.352697],[-157.767085,21.350918],[-157.766231,21.35049],[-157.764336,21.349286],[-157.764556,21.348713],[-157.765357,21.346816],[-157.765848,21.345643],[-157.766123,21.345018],[-157.766389,21.343841],[-157.766808,21.342083],[-157.768575,21.339329],[-157.77042,21.33267],[-157.774138,21.326523],[-157.775539,21.324776],[-157.776334,21.323399],[-157.777981,21.320428],[-157.77837,21.318652],[-157.778906,21.316378],[-157.781709,21.313714],[-157.783693,21.311788],[-157.786363,21.312432],[-157.786696,21.312879]]},"properties":{"Voltage_kV":138}},{"type":"Feature","geometry":{"type":"LineString","coordinates":[[-157.924268,21.339036],[-157.923558,21.33902],[-157.921643,21.338733],[-157.918052,21.33826],[-157.914422,21.337724],[-157.913136,21.337469],[-157.910376,21.33692],[-157.906839,21.336401],[-157.90502,21.336133],[-157.903284,21.335856],[-157.902318,21.33639],[-157.901708,21.337305],[-157.901687,21.338349],[-157.901668,21.339473],[-157.900545,21.339485],[-157.900223,21.339173],[-157.900198,21.340337],[-157.899838,21.341413],[-157.899312,21.34229],[-157.899397,21.342795],[-157.899011,21.342842],[-157.898325,21.342369],[-157.897345,21.341963],[-157.895393,21.34115],[-157.893458,21.340258],[-157.892556,21.339874],[-157.891646,21.339515],[-157.890833,21.339402],[-157.890203,21.33924],[-157.889436,21.338901],[-157.888878,21.338329],[-157.888474,21.337582],[-157.888246,21.336704],[-157.888106,21.335934],[-157.887463,21.335267],[-157.888424,21.334466],[-157.889509,21.33361],[-157.888641,21.333251],[-157.886785,21.332502],[-157.885681,21.331958],[-157.884843,21.331377],[-157.884136,21.330772],[-157.883245,21.330134],[-157.882417,21.3295],[-157.881524,21.328735],[-157.881295,21.328137],[-157.882419,21.326954],[-157.883024,21.326342],[-157.882639,21.326174],[-157.881367,21.324885],[-157.878962,21.322424],[-157.877494,21.320934],[-157.876349,21.320686],[-157.875241,21.320936],[-157.874273,21.321236],[-157.873435,21.321693],[-157.873091,21.321898],[-157.872286,21.321436],[-157.869884,21.320004],[-157.867961,21.318886],[-157.867592,21.318031],[-157.867304,21.317746]]},"properties":{"Voltage_kV":138}},{"type":"Feature","geometry":{"type":"LineString","coordinates":[[-157.882836,21.379424],[-157.882299,21.378131],[-157.881348,21.378562],[-157.879882,21.380389],[-157.876589,21.379386],[-157.868271,21.371059],[-157.864934,21.365373],[-157.86231,21.360722],[-157.862678,21.358761],[-157.863153,21.357297],[-157.865146,21.354761],[-157.866122,21.353409],[-157.86791,21.350834],[-157.868947,21.349055],[-157.869646,21.347703],[-157.871321,21.345966],[-157.872718,21.345475],[-157.874296,21.344855],[-157.875548,21.343998],[-157.874995,21.343076],[-157.874921,21.342293],[-157.874762,21.34144],[-157.873979,21.340451],[-157.873179,21.339443],[-157.872402,21.33847],[-157.871907,21.338044],[-157.872333,21.337873],[-157.873493,21.337044],[-157.874844,21.336062],[-157.875844,21.335346],[-157.876245,21.334951],[-157.875561,21.334062],[-157.874772,21.333037],[-157.87407,21.332027],[-157.875052,21.33118],[-157.875579,21.330766],[-157.876333,21.330078],[-157.878075,21.328307],[-157.878995,21.327332],[-157.879628,21.327131],[-157.879633,21.326717],[-157.87855,21.326196],[-157.877526,21.325323],[-157.876434,21.324394],[-157.875668,21.323736],[-157.875366,21.32349],[-157.874187,21.322786],[-157.872934,21.322069],[-157.871692,21.321328],[-157.870446,21.3206],[-157.869267,21.319932],[-157.867399,21.318808],[-157.867304,21.317746]]},"properties":{"Voltage_kV":138}},{"type":"Feature","geometry":{"type":"LineString","coordinates":[[-157.860416,21.322951],[-157.860839,21.323209],[-157.861225,21.323916],[-157.861876,21.325046],[-157.862431,21.326033],[-157.862962,21.326949],[-157.863484,21.327921],[-157.864175,21.329073],[-157.864797,21.330158],[-157.865508,21.331204],[-157.866336,21.332267],[-157.867159,21.333258],[-157.86793,21.334266],[-157.868746,21.335293],[-157.869389,21.336098],[-157.869565,21.336831],[-157.868879,21.337715],[-157.868471,21.338386],[-157.868129,21.33944],[-157.868081,21.339912],[-157.868002,21.341715],[-157.867945,21.34258],[-157.867919,21.343235],[-157.867871,21.34427],[-157.867617,21.3456],[-157.867302,21.346203],[-157.866792,21.346834],[-157.865484,21.347808],[-157.866315,21.349394],[-157.867483,21.349959],[-157.866626,21.351329],[-157.863971,21.355112],[-157.86244,21.357578],[-157.861531,21.361277],[-157.864342,21.365828],[-157.867711,21.371417],[-157.876573,21.379911],[-157.880066,21.380605],[-157.881484,21.37865],[-157.882231,21.378402],[-157.882836,21.379424]]},"properties":{"Voltage_kV":138}},{"type":"Feature","geometry":{"type":"LineString","coordinates":[[-157.924268,21.339036],[-157.924676,21.33923],[-157.927079,21.339597],[-157.928512,21.340202],[-157.929399,21.340677],[-157.930018,21.341402],[-157.930987,21.343507],[-157.931757,21.345121],[-157.932506,21.346665],[-157.932697,21.348387],[-157.932661,21.348905],[-157.932352,21.35032],[-157.932064,21.351232],[-157.931733,21.352609],[-157.931377,21.354468],[-157.93117,21.354882],[-157.929403,21.356913],[-157.929304,21.357419],[-157.927781,21.357964],[-157.92735,21.357606]]},"properties":{"Voltage_kV":138}},{"type":"Feature","geometry":{"type":"LineString","coordinates":[[-157.860416,21.322951],[-157.860413,21.322458],[-157.860677,21.321233],[-157.861822,21.32035],[-157.863489,21.319035],[-157.864046,21.318666],[-157.865687,21.318492],[-157.866699,21.318274],[-157.867304,21.317746]]},"properties":{"Voltage_kV":138}},{"type":"Feature","geometry":{"type":"LineString","coordinates":[[-157.882836,21.379424],[-157.883488,21.379902],[-157.885997,21.378578],[-157.887105,21.378228],[-157.888263,21.378533],[-157.890669,21.380015],[-157.893179,21.379972],[-157.897723,21.379893],[-157.900488,21.379828],[-157.904009,21.382543],[-157.905179,21.381494],[-157.906617,21.380849],[-157.907865,21.380455],[-157.908319,21.380109],[-157.908763,21.379465],[-157.909275,21.378729],[-157.9098,21.377987],[-157.910381,21.376985],[-157.910894,21.376063],[-157.911432,21.375172],[-157.912376,21.37451],[-157.911786,21.373801],[-157.911951,21.37299],[-157.912202,21.372104],[-157.912892,21.371681],[-157.913761,21.371196],[-157.914137,21.368372],[-157.91401,21.367024],[-157.913908,21.366065],[-157.913851,21.365083],[-157.915431,21.364843],[-157.916685,21.364737],[-157.91782,21.364375],[-157.918973,21.364056],[-157.919824,21.363109],[-157.92069,21.362173],[-157.921535,21.360876],[-157.922044,21.359884],[-157.922315,21.359573],[-157.923416,21.358656],[-157.923711,21.358618],[-157.924832,21.358367],[-157.926123,21.358319],[-157.926992,21.358074],[-157.92735,21.357606]]},"properties":{"Voltage_kV":138}},{"type":"Feature","geometry":{"type":"LineString","coordinates":[[-157.96043,21.38926],[-157.959912,21.389442],[-157.95878,21.390554],[-157.95758,21.39075],[-157.956213,21.391095],[-157.954488,21.390678],[-157.953662,21.390695],[-157.95223,21.390642],[-157.950624,21.390842],[-157.949282,21.390828],[-157.947814,21.390777],[-157.946708,21.390337],[-157.946284,21.388927],[-157.945868,21.388055],[-157.945019,21.38775],[-157.943583,21.387155],[-157.942473,21.386713],[-157.94129,21.386259],[-157.939874,21.385687],[-157.938418,21.38499],[-157.937563,21.383975],[-157.937109,21.382719],[-157.936517,21.381641],[-157.935229,21.381023],[-157.933282,21.381191],[-157.931834,21.381157],[-157.930785,21.380573],[-157.930787,21.379417],[-157.930833,21.377714],[-157.930696,21.376637],[-157.93141,21.375624],[-157.931719,21.375217],[-157.932182,21.374169],[-157.932568,21.373474],[-157.93307,21.372621],[-157.933386,21.372104],[-157.933723,21.371485],[-157.933404,21.371588],[-157.932535,21.371136],[-157.931623,21.370691],[-157.931097,21.370149],[-157.930421,21.368512],[-157.930012,21.367352],[-157.929449,21.365985],[-157.929051,21.365054],[-157.928634,21.364124],[-157.928345,21.363221],[-157.92809,21.362227],[-157.927709,21.360819],[-157.927407,21.359682],[-157.927162,21.358461],[-157.927434,21.358198],[-157.92735,21.357606]]},"properties":{"Voltage_kV":138}},{"type":"Feature","geometry":{"type":"LineString","coordinates":[[-157.96043,21.38926],[-157.9606,21.390412],[-157.961634,21.390858],[-157.963152,21.391547],[-157.962311,21.3941],[-157.959586,21.396645],[-157.958051,21.398521],[-157.956594,21.400378],[-157.955059,21.402197],[-157.953548,21.404004],[-157.952415,21.406213],[-157.950958,21.408864],[-157.949968,21.410484],[-157.94819,21.413259],[-157.947064,21.413587],[-157.943101,21.414752],[-157.936101,21.412769],[-157.931585,21.411517],[-157.927176,21.410122],[-157.923678,21.408152],[-157.921558,21.407601],[-157.919126,21.406828],[-157.916579,21.40531],[-157.913231,21.403038],[-157.910028,21.401408],[-157.907681,21.400381],[-157.904664,21.399197],[-157.903334,21.398129],[-157.902022,21.396285],[-157.901645,21.395816],[-157.897411,21.392948],[-157.89453,21.390938],[-157.890291,21.388268],[-157.888426,21.385496],[-157.886784,21.383029],[-157.884797,21.380296],[-157.88392,21.379007],[-157.882208,21.378678],[-157.881788,21.378801],[-157.880872,21.380291],[-157.879632,21.382285],[-157.875074,21.3801],[-157.871856,21.37783],[-157.869767,21.378692],[-157.86722,21.379758],[-157.865907,21.380298],[-157.863275,21.381419],[-157.859343,21.383478],[-157.856163,21.385151],[-157.854598,21.385932],[-157.853635,21.386419],[-157.849608,21.38717],[-157.846651,21.387755],[-157.841678,21.388757],[-157.837255,21.388763],[-157.831476,21.388798],[-157.824943,21.390779],[-157.820114,21.391083],[-157.810949,21.391283],[-157.807611,21.388045],[-157.805444,21.386929],[-157.800117,21.384072],[-157.798903,21.384076],[-157.795044,21.384074],[-157.793914,21.383887]]},"properties":{"Voltage_kV":138}},{"type":"Feature","geometry":{"type":"LineString","coordinates":[[-157.882836,21.379424],[-157.88229,21.378557],[-157.881498,21.378678],[-157.879743,21.381852],[-157.876984,21.380596],[-157.875014,21.379645],[-157.870387,21.376734],[-157.864444,21.379328],[-157.860304,21.381528],[-157.857625,21.382892],[-157.855563,21.383938],[-157.85164,21.385937],[-157.848174,21.386525],[-157.845562,21.387008],[-157.842505,21.387571],[-157.839205,21.387807],[-157.831247,21.388327],[-157.829543,21.388442],[-157.825215,21.388761],[-157.815659,21.388403],[-157.812719,21.388306],[-157.809518,21.388231],[-157.808252,21.385364],[-157.807299,21.383358],[-157.804884,21.383376],[-157.801197,21.383518],[-157.799317,21.383597],[-157.797246,21.383688],[-157.794789,21.383822],[-157.793914,21.383887]]},"properties":{"Voltage_kV":138}},{"type":"Feature","geometry":{"type":"LineString","coordinates":[[-157.96043,21.38926],[-157.959694,21.388683],[-157.960224,21.387692],[-157.963331,21.389021],[-157.964953,21.389854],[-157.966551,21.389549],[-157.968102,21.389502],[-157.969665,21.38969],[-157.969772,21.390334],[-157.972361,21.391285],[-157.974431,21.392198],[-157.975325,21.392487],[-157.976616,21.392969],[-157.977973,21.393576],[-157.978098,21.394821],[-157.979569,21.39544],[-157.980916,21.395713],[-157.981872,21.396439],[-157.983205,21.396332],[-157.983688,21.396909],[-157.983896,21.397829],[-157.984309,21.398662],[-157.985848,21.399942],[-157.988897,21.402175],[-157.989702,21.401697],[-157.991601,21.401549],[-157.992225,21.400193],[-157.99271,21.399179],[-157.993549,21.398378],[-157.996991,21.399157],[-158.000445,21.399774],[-158.002301,21.39975],[-158.004683,21.39914],[-158.00697,21.398246],[-158.008327,21.397693],[-158.010666,21.396501],[-158.011739,21.395119],[-158.013407,21.393654],[-158.01501,21.392517],[-158.01629,21.39195],[-158.019526,21.390896],[-158.020342,21.390638],[-158.021196,21.390311],[-158.022357,21.389736],[-158.023555,21.389082],[-158.024684,21.388367],[-158.027776,21.386684],[-158.030361,21.385387],[-158.032834,21.384051],[-158.035174,21.382672],[-158.037203,21.381408],[-158.038656,21.380477],[-158.040129,21.37957],[-158.041853,21.37894],[-158.043832,21.37814],[-158.044833,21.377586],[-158.046135,21.377062],[-158.047704,21.376559],[-158.047811,21.375428],[-158.048184,21.374494],[-158.047403,21.374118],[-158.045748,21.372091]]},"properties":{"Voltage_kV":138}},{"type":"Feature","geometry":{"type":"LineString","coordinates":[[-158.045748,21.372091],[-158.045574,21.371554],[-158.04598,21.371078],[-158.047978,21.369781],[-158.048954,21.369151],[-158.050212,21.368348],[-158.051186,21.367734],[-158.052144,21.367095],[-158.052748,21.366275],[-158.053261,21.365355],[-158.053828,21.364199],[-158.054496,21.363178],[-158.054996,21.362594],[-158.055073,21.361985],[-158.054128,21.361175],[-158.052952,21.360144],[-158.051964,21.359147],[-158.051104,21.35805],[-158.050383,21.35687],[-158.049821,21.355607],[-158.049429,21.354307],[-158.049212,21.353018],[-158.049147,21.351701],[-158.049275,21.350476],[-158.049543,21.349191],[-158.04989,21.347881],[-158.050247,21.346976],[-158.050795,21.346163],[-158.05173,21.345078],[-158.052619,21.344069],[-158.053204,21.343128],[-158.053478,21.342084],[-158.053441,21.340994],[-158.052499,21.338751],[-158.051931,21.33763],[-158.050217,21.334461],[-158.048645,21.331555],[-158.050291,21.330959],[-158.052017,21.330352],[-158.055118,21.329299],[-158.05675,21.328742],[-158.058558,21.328118],[-158.061286,21.327188],[-158.06459,21.32604],[-158.066261,21.325488],[-158.067254,21.325205],[-158.068278,21.324848],[-158.069785,21.324291],[-158.070884,21.323903],[-158.071992,21.323524],[-158.073116,21.323205],[-158.074119,21.323009],[-158.075222,21.322917],[-158.076396,21.322934],[-158.077515,21.323043],[-158.078621,21.323413],[-158.080493,21.323902],[-158.083099,21.324585],[-158.084786,21.324985],[-158.08668,21.325476],[-158.088567,21.325963],[-158.090322,21.326432],[-158.091397,21.326727],[-158.096206,21.32794],[-158.096859,21.327499]]},"properties":{"Voltage_kV":138}},{"type":"Feature","geometry":{"type":"LineString","coordinates":[[-158.045748,21.372091],[-158.045354,21.371696],[-158.045954,21.371055],[-158.047953,21.369752],[-158.050199,21.36832],[-158.052131,21.367062],[-158.052726,21.366235],[-158.053244,21.365317],[-158.05379,21.364172],[-158.054466,21.363146],[-158.054958,21.362562],[-158.055027,21.362024],[-158.054093,21.361189],[-158.052921,21.360152],[-158.051933,21.359161],[-158.051067,21.358075],[-158.050353,21.356899],[-158.049795,21.355637],[-158.049401,21.354338],[-158.049173,21.353027],[-158.049113,21.351702],[-158.04923,21.350453],[-158.049493,21.349171],[-158.049841,21.347866],[-158.050206,21.346966],[-158.050759,21.346142],[-158.052586,21.344046],[-158.053176,21.343107],[-158.053429,21.342065],[-158.053391,21.340996],[-158.05246,21.338749],[-158.051883,21.337653],[-158.051021,21.336068],[-158.049299,21.332872],[-158.048587,21.331534],[-158.051711,21.330423],[-158.062925,21.326583],[-158.064585,21.325996],[-158.066249,21.325456],[-158.06726,21.325167],[-158.068281,21.324812],[-158.069772,21.324258],[-158.070902,21.323848],[-158.072001,21.323489],[-158.073144,21.323154],[-158.074144,21.322973],[-158.075261,21.322857],[-158.076457,21.32287],[-158.077565,21.322994],[-158.078648,21.323375],[-158.080506,21.323866],[-158.084806,21.324944],[-158.086689,21.325435],[-158.088581,21.325899],[-158.088924,21.325785],[-158.088657,21.324337],[-158.088352,21.322907],[-158.088152,21.321692],[-158.088371,21.320412],[-158.089372,21.320501],[-158.089656,21.319727],[-158.090134,21.319251],[-158.090963,21.318908],[-158.092737,21.318257],[-158.093709,21.31792],[-158.093699,21.317392],[-158.095024,21.316344],[-158.094497,21.314781],[-158.094222,21.313978],[-158.093848,21.313332],[-158.093661,21.312128],[-158.093458,21.310829],[-158.093269,21.309658],[-158.09308,21.308428],[-158.092895,21.307225],[-158.092846,21.305974],[-158.094205,21.305642],[-158.095505,21.305478],[-158.095212,21.305262],[-158.095036,21.30404],[-158.094818,21.302756],[-158.096114,21.302622],[-158.097007,21.302104]]},"properties":{"Voltage_kV":138}},{"type":"Feature","geometry":{"type":"LineString","coordinates":[[-158.10363,21.304951],[-158.103948,21.30607],[-158.103124,21.306098],[-158.102759,21.306092],[-158.102978,21.30754],[-158.103317,21.309627],[-158.103541,21.311213],[-158.103879,21.313198],[-158.103772,21.313711],[-158.10443,21.315356],[-158.1048,21.316197],[-158.105185,21.317059],[-158.105556,21.317851],[-158.106298,21.319585],[-158.107074,21.321238],[-158.106376,21.321912],[-158.105766,21.322418],[-158.10505,21.323058],[-158.103723,21.32424],[-158.102936,21.32495],[-158.102652,21.325652],[-158.102271,21.326408],[-158.101877,21.327191],[-158.1011,21.328272],[-158.10072,21.328953],[-158.099835,21.328831],[-158.098937,21.328603],[-158.09814,21.328389],[-158.097274,21.328061],[-158.0973,21.327283],[-158.096859,21.327499]]},"properties":{"Voltage_kV":138}},{"type":"Feature","geometry":{"type":"LineString","coordinates":[[-158.097007,21.302104],[-158.097644,21.301879],[-158.097758,21.302521],[-158.098208,21.302447],[-158.100957,21.302055],[-158.102169,21.301896],[-158.10231,21.302962],[-158.10249,21.304181],[-158.102421,21.304518],[-158.103474,21.304391],[-158.10363,21.304951]]},"properties":{"Voltage_kV":138}},{"type":"Feature","geometry":{"type":"LineString","coordinates":[[-158.128224,21.35673],[-158.125979,21.354733],[-158.123923,21.352582],[-158.120069,21.349857],[-158.114318,21.345374],[-158.110504,21.343599],[-158.109076,21.342514],[-158.106639,21.34204],[-158.104114,21.341626],[-158.103132,21.341015],[-158.10008,21.340683],[-158.098334,21.340059],[-158.096528,21.339504],[-158.095188,21.339119],[-158.093622,21.33881],[-158.092352,21.338365],[-158.091557,21.336809],[-158.09212,21.33552],[-158.093196,21.33392],[-158.094421,21.332081],[-158.095632,21.330196],[-158.097003,21.328167],[-158.096859,21.327499]]},"properties":{"Voltage_kV":138}},{"type":"Feature","geometry":{"type":"LineString","coordinates":[[-157.882836,21.379424],[-157.884429,21.379028],[-157.886035,21.381102],[-157.891162,21.387654],[-157.897762,21.392771],[-157.902101,21.39563],[-157.90374,21.397906],[-157.906472,21.398375],[-157.910306,21.400943],[-157.916422,21.404005],[-157.919556,21.405618],[-157.927947,21.409644],[-157.934732,21.410742],[-157.939484,21.410157],[-157.943393,21.409662],[-157.94722,21.407593],[-157.948082,21.403687],[-157.95035,21.393302],[-157.951412,21.39094],[-157.953744,21.391273],[-157.955882,21.391686],[-157.958188,21.390891],[-157.959164,21.390706],[-157.96043,21.38926]]},"properties":{"Voltage_kV":138}},{"type":"Feature","geometry":{"type":"LineString","coordinates":[[-158.128224,21.35673],[-158.120485,21.357496],[-158.115778,21.35901],[-158.113656,21.359676],[-158.110327,21.360739],[-158.104414,21.36266],[-158.10252,21.366552],[-158.097864,21.37031],[-158.094895,21.372654],[-158.091503,21.375264],[-158.088633,21.377576],[-158.086562,21.379203],[-158.084577,21.38069],[-158.081579,21.383139],[-158.079993,21.386567],[-158.077352,21.39223],[-158.076025,21.395023],[-158.068937,21.399573],[-158.067857,21.400246],[-158.062969,21.403364],[-158.059164,21.405777],[-158.054145,21.40896],[-158.049683,21.411781],[-158.04476,21.41492],[-158.039798,21.418061],[-158.034944,21.421147],[-158.032398,21.422773],[-158.029897,21.42433],[-158.026785,21.426482],[-158.024065,21.426779],[-158.020759,21.427117],[-158.018016,21.427418],[-158.014811,21.427773],[-158.012218,21.428053],[-158.008011,21.429446],[-158.006614,21.432238],[-158.004983,21.434907],[-158.003023,21.438046],[-158.001843,21.440033],[-157.998719,21.445133],[-157.994681,21.446008],[-157.990709,21.446727],[-157.985929,21.447802],[-157.982089,21.45131],[-157.979374,21.454281],[-157.976491,21.459268],[-157.975449,21.462217],[-157.974494,21.465207],[-157.974093,21.46647],[-157.974975,21.473208],[-157.976234,21.478159],[-157.976247,21.480001],[-157.976738,21.481121],[-157.978464,21.484088],[-157.981327,21.485246],[-157.98711,21.485131],[-157.993815,21.4872],[-157.996369,21.48829],[-157.999628,21.489638],[-158.002059,21.490149],[-158.004084,21.49062],[-158.005798,21.491022],[-158.00919,21.490557],[-158.012815,21.490018],[-158.015366,21.489677],[-158.017484,21.489332],[-158.023141,21.488486],[-158.02389,21.490382],[-158.02447,21.491882],[-158.024589,21.492637]]},"properties":{"Voltage_kV":138}},{"type":"Feature","geometry":{"type":"LineString","coordinates":[[-158.128224,21.35673],[-158.12687,21.356264],[-158.120588,21.35692],[-158.116263,21.358227],[-158.110301,21.360004],[-158.106426,21.361185],[-158.104047,21.361939],[-158.102209,21.36551],[-158.100972,21.36671],[-158.09758,21.36931],[-158.095926,21.370598],[-158.094155,21.372004],[-158.091558,21.373911],[-158.088277,21.376668],[-158.085771,21.378761],[-158.081246,21.382623],[-158.080059,21.38505],[-158.076557,21.39206],[-158.075364,21.394525],[-158.068414,21.3995],[-158.067261,21.400238],[-158.065984,21.401053],[-158.06412,21.402247],[-158.061223,21.404093],[-158.059062,21.405452],[-158.056765,21.406927],[-158.054346,21.408446],[-158.05161,21.410196],[-158.049563,21.411489],[-158.047033,21.413099],[-158.044484,21.414727],[-158.042375,21.416051],[-158.039992,21.417568],[-158.037529,21.419123],[-158.0349,21.420784],[-158.032339,21.422421],[-158.029639,21.424127],[-158.026332,21.425301],[-158.023273,21.425601],[-158.020254,21.425875],[-158.017635,21.426135],[-158.013873,21.426485],[-158.010149,21.426831],[-158.007813,21.42886],[-158.006919,21.430314],[-158.005821,21.432071],[-158.005072,21.433298],[-158.004045,21.434956],[-158.003176,21.436349],[-158.001476,21.439077],[-158.000627,21.440388],[-157.998465,21.441257],[-157.996625,21.442024],[-157.994803,21.442776],[-157.993579,21.44329],[-157.992246,21.443827],[-157.990825,21.444439],[-157.986746,21.446137],[-157.984941,21.446869],[-157.982513,21.447869],[-157.977778,21.447836],[-157.975614,21.447835],[-157.972247,21.447816],[-157.971464,21.446636],[-157.969442,21.443773],[-157.968458,21.442348],[-157.966493,21.439588],[-157.964501,21.438423],[-157.962563,21.437296],[-157.955801,21.433388],[-157.953515,21.432192],[-157.952083,21.431273],[-157.948467,21.431824],[-157.945338,21.432301],[-157.943203,21.432634],[-157.940881,21.432359],[-157.934614,21.43135],[-157.929757,21.42663],[-157.928537,21.425921],[-157.927495,21.42532],[-157.924853,21.423807],[-157.922898,21.422687],[-157.919051,21.420496],[-157.916112,21.418359],[-157.911873,21.41497],[-157.910375,21.413523],[-157.907069,21.410727],[-157.905013,21.408518],[-157.901807,21.405489],[-157.896687,21.402028],[-157.895777,21.401426],[-157.893789,21.39865],[-157.892667,21.396874],[-157.887874,21.390337],[-157.88645,21.38716],[-157.885698,21.385513],[-157.883854,21.381441],[-157.882836,21.379424]]},"properties":{"Voltage_kV":138}},{"type":"Feature","geometry":{"type":"LineString","coordinates":[[-157.96043,21.38926],[-157.959941,21.390394],[-157.958174,21.390933],[-157.95588,21.391727],[-157.953741,21.391307],[-157.951425,21.391018],[-157.950367,21.393378],[-157.949941,21.395758],[-157.94933,21.398356],[-157.948689,21.401221],[-157.948144,21.403703],[-157.947234,21.407657],[-157.943356,21.409726],[-157.939409,21.410209],[-157.934647,21.410815],[-157.933021,21.411639],[-157.932705,21.417203],[-157.932328,21.421184],[-157.932022,21.425661],[-157.935933,21.430352],[-157.936914,21.431543],[-157.9387,21.434762],[-157.941959,21.436768],[-157.944776,21.438488],[-157.950967,21.445156],[-157.951303,21.447606],[-157.952014,21.451863],[-157.952385,21.454564],[-157.954349,21.459527],[-157.95495,21.461135],[-157.956057,21.464101],[-157.959656,21.469276],[-157.962476,21.472292],[-157.966524,21.476504],[-157.969495,21.479286],[-157.972624,21.482305],[-157.975136,21.484649],[-157.976385,21.485312],[-157.982291,21.485868],[-157.984484,21.48607],[-157.989119,21.486417],[-157.993536,21.487556],[-157.99612,21.488699],[-158.001489,21.490992],[-158.003692,21.491949],[-158.006168,21.491664],[-158.010895,21.491085],[-158.015723,21.490483],[-158.017602,21.490252],[-158.020177,21.489911],[-158.02241,21.48964],[-158.024084,21.491979],[-158.024589,21.492637]]},"properties":{"Voltage_kV":138}},{"type":"Feature","geometry":{"type":"LineString","coordinates":[[-157.860416,21.322951],[-157.860459,21.322731],[-157.859662,21.3216],[-157.861916,21.319896],[-157.856507,21.31316],[-157.854226,21.310316],[-157.855159,21.307388],[-157.855764,21.306635],[-157.857753,21.305154],[-157.855738,21.304016],[-157.8544,21.301585],[-157.85317,21.301016],[-157.853108,21.300885]]},"properties":{"Voltage_kV":138}},{"type":"Feature","geometry":{"type":"LineString","coordinates":[[-158.106937,21.303242],[-158.10363,21.304951]]},"properties":{"Voltage_kV":4}},{"type":"Feature","geometry":{"type":"LineString","coordinates":[[-158.096356,21.301978],[-158.097007,21.302104]]},"properties":{"Voltage_kV":4}},{"type":"Feature","geometry":{"type":"LineString","coordinates":[[-157.863535,21.305605],[-157.863345,21.305375]]},"properties":{"Voltage_kV":4}},{"type":"Feature","geometry":{"type":"LineString","coordinates":[[-158.129447,21.356893],[-158.128224,21.35673]]},"properties":{"Voltage_kV":4}},{"type":"Feature","geometry":{"type":"LineString","coordinates":[[-157.960659,21.388539],[-157.96043,21.38926]]},"properties":{"Voltage_kV":4}},{"type":"Feature","geometry":{"type":"LineString","coordinates":[[-158.107275,21.304342],[-158.10363,21.304951]]},"properties":{"Voltage_kV":4}},{"type":"Feature","geometry":{"type":"LineString","coordinates":[[-158.096653,21.327916],[-158.096859,21.327499]]},"properties":{"Voltage_kV":4}},{"type":"Feature","geometry":{"type":"LineString","coordinates":[[-158.046248,21.372147],[-158.045748,21.372091]]},"properties":{"Voltage_kV":4}},{"type":"Feature","geometry":{"type":"LineString","coordinates":[[-158.042957,21.526396],[-158.042806,21.526451]]},"properties":{"Voltage_kV":4}}]}