{"type":"FeatureCollection","features":[{"type":"Feature","id":163,"geometry":{"type":"MultiLineString","coordinates":[[[-158.009583,21.695027],[-158.010736,21.695042]]]},"properties":{"slr_ft":3.2}},{"type":"Feature","id":164,"geometry":{"type":"MultiLineString","coordinates":[[[-158.016974,21.694432],[-158.017244,21.694273]],[[-158.017406,21.694178],[-158.01741,21.694176]]]},"properties":{"slr_ft":3.2}},{"type":"Feature","id":165,"geometry":{"type":"MultiLineString","coordinates":[[[-158.039463,21.674656],[-158.040901,21.673286]]]},"properties":{"slr_ft":3.2}},{"type":"Feature","id":166,"geometry":{"type":"MultiLineString","coordinates":[[[-158.040901,21.673286],[-158.042418,21.671914]],[[-158.047551,21.667281],[-158.052396,21.662917]],[[-158.054611,21.66091],[-158.05488,21.660671]]]},"properties":{"slr_ft":3.2}},{"type":"Feature","id":167,"geometry":{"type":"MultiLineString","coordinates":[[[-158.057594,21.658011],[-158.057831,21.657677]]]},"properties":{"slr_ft":3.2}},{"type":"Feature","id":168,"geometry":{"type":"MultiLineString","coordinates":[[[-157.929181,21.653009],[-157.929287,21.653165]]]},"properties":{"slr_ft":3.2}},{"type":"Feature","id":169,"geometry":{"type":"MultiLineString","coordinates":[[[-157.92079,21.646856],[-157.920827,21.646872]]]},"properties":{"slr_ft":3.2}},{"type":"Feature","id":170,"geometry":{"type":"MultiLineString","coordinates":[[[-158.062096,21.639041],[-158.062294,21.639053]],[[-158.064278,21.638322],[-158.064915,21.637971]]]},"properties":{"slr_ft":3.2}},{"type":"Feature","id":171,"geometry":{"type":"MultiLineString","coordinates":[[[-158.069379,21.634001],[-158.069452,21.633896]],[[-158.069453,21.633893],[-158.069554,21.633747]],[[-158.071366,21.631259],[-158.071455,21.631132]],[[-158.071491,21.631077],[-158.07228,21.629941]]]},"properties":{"slr_ft":3.2}},{"type":"Feature","id":172,"geometry":{"type":"MultiLineString","coordinates":[[[-158.075745,21.625726],[-158.077362,21.624627]],[[-158.08177,21.621582],[-158.082215,21.621246]]]},"properties":{"slr_ft":3.2}},{"type":"Feature","id":173,"geometry":{"type":"MultiLineString","coordinates":[[[-158.085151,21.618726],[-158.085181,21.618696]]]},"properties":{"slr_ft":3.2}},{"type":"Feature","id":174,"geometry":{"type":"MultiLineString","coordinates":[[[-158.085181,21.618696],[-158.087584,21.616341]],[[-158.087676,21.616251],[-158.087882,21.61605]],[[-158.088672,21.615275],[-158.088704,21.615245]],[[-158.088769,21.615181],[-158.08879,21.61516]],[[-158.088815,21.615136],[-158.088839,21.615113]],[[-158.088858,21.615094],[-158.089073,21.614883]],[[-158.089148,21.61481],[-158.089399,21.614566]]]},"properties":{"slr_ft":3.2}},{"type":"Feature","id":175,"geometry":{"type":"MultiLineString","coordinates":[[[-157.912165,21.61314],[-157.912982,21.614308],[-157.913256,21.615219]]]},"properties":{"slr_ft":3.2}},{"type":"Feature","id":176,"geometry":{"type":"MultiLineString","coordinates":[[[-157.911809,21.612644],[-157.912165,21.61314]],[[-157.911717,21.612516],[-157.911736,21.612542]],[[-157.909949,21.610056],[-157.911698,21.612489]],[[-157.909902,21.609992],[-157.909907,21.609999]],[[-157.909756,21.609788],[-157.909778,21.609819]],[[-157.9093,21.609093],[-157.909739,21.609765]]]},"properties":{"slr_ft":3.2}},{"type":"Feature","id":177,"geometry":{"type":"MultiLineString","coordinates":[[[-157.908164,21.607559],[-157.90866,21.608064],[-157.9093,21.609093]]]},"properties":{"slr_ft":3.2}},{"type":"Feature","id":178,"geometry":{"type":"MultiLineString","coordinates":[[[-157.905528,21.606916],[-157.9057,21.606946]],[[-157.902953,21.605892],[-157.90468,21.606715],[-157.905484,21.606907]]]},"properties":{"slr_ft":3.2}},{"type":"Feature","id":179,"geometry":{"type":"MultiLineString","coordinates":[[[-157.899467,21.603566],[-157.901375,21.605085],[-157.902953,21.605892]]]},"properties":{"slr_ft":3.2}},{"type":"Feature","id":180,"geometry":{"type":"MultiLineString","coordinates":[[[-158.103244,21.594609],[-158.103342,21.594092]]]},"properties":{"slr_ft":3.2}},{"type":"Feature","id":181,"geometry":{"type":"MultiLineString","coordinates":[[[-158.177451,21.579387],[-158.178097,21.579497]],[[-158.177135,21.579335],[-158.17738,21.579376]],[[-158.175927,21.579134],[-158.17619,21.579177]]]},"properties":{"slr_ft":3.2}},{"type":"Feature","id":182,"geometry":{"type":"MultiLineString","coordinates":[[[-158.205298,21.580993],[-158.205541,21.580996]],[[-158.204695,21.580986],[-158.204985,21.580989]],[[-158.196881,21.580907],[-158.197315,21.580909]],[[-158.194225,21.580889],[-158.194562,21.580892]],[[-158.178097,21.579497],[-158.182171,21.580157]],[[-158.214381,21.579436],[-158.219631,21.57786]],[[-158.228225,21.578348],[-158.230001,21.578467]]]},"properties":{"slr_ft":3.2}},{"type":"Feature","id":183,"geometry":{"type":"MultiLineString","coordinates":[[[-158.175527,21.579069],[-158.175927,21.579134]]]},"properties":{"slr_ft":3.2}},{"type":"Feature","id":184,"geometry":{"type":"MultiLineString","coordinates":[[[-157.858084,21.557872],[-157.858852,21.558094]],[[-157.85777,21.557781],[-157.857825,21.557797]]]},"properties":{"slr_ft":3.2}},{"type":"Feature","id":185,"geometry":{"type":"MultiLineString","coordinates":[[[-157.856247,21.557341],[-157.85777,21.557781]]]},"properties":{"slr_ft":3.2}},{"type":"Feature","id":186,"geometry":{"type":"MultiLineString","coordinates":[[[-157.850313,21.554132],[-157.850775,21.554619],[-157.851412,21.555035]]]},"properties":{"slr_ft":3.2}},{"type":"Feature","id":193,"geometry":{"type":"MultiLineString","coordinates":[[[-157.850307,21.489806],[-157.850362,21.490068]],[[-157.850303,21.489788],[-157.850307,21.489804]],[[-157.850288,21.489724],[-157.850288,21.489724]],[[-157.850277,21.489679],[-157.850279,21.489686]],[[-157.850082,21.488997],[-157.850103,21.489063]],[[-157.849905,21.488511],[-157.850072,21.488969]],[[-157.849898,21.488493],[-157.849902,21.488504]],[[-157.849554,21.487687],[-157.849887,21.488466]],[[-157.848821,21.486126],[-157.849539,21.48765]],[[-157.848691,21.485928],[-157.848776,21.486055]],[[-157.848506,21.485674],[-157.848592,21.485788]],[[-157.848401,21.485543],[-157.848506,21.485674]],[[-157.848128,21.485238],[-157.848362,21.485497]],[[-157.847941,21.485052],[-157.848046,21.485155]],[[-157.847719,21.484855],[-157.847855,21.484974]],[[-157.847517,21.484691],[-157.847677,21.484819]],[[-157.847183,21.484452],[-157.847504,21.484682]],[[-157.847135,21.484418],[-157.847155,21.484432]]]},"properties":{"slr_ft":3.2}},{"type":"Feature","id":195,"geometry":{"type":"MultiLineString","coordinates":[[[-157.844571,21.471837],[-157.84457,21.471843]],[[-157.844581,21.471767],[-157.844575,21.471807]],[[-157.844587,21.471726],[-157.844582,21.471762]],[[-157.844591,21.471697],[-157.844588,21.471717]],[[-157.844507,21.470524],[-157.844542,21.470625]],[[-157.844497,21.470497],[-157.844504,21.470516]],[[-157.844488,21.470469],[-157.844494,21.470489]],[[-157.844456,21.470378],[-157.844485,21.470462]]]},"properties":{"slr_ft":3.2}},{"type":"Feature","id":187,"geometry":{"type":"MultiLineString","coordinates":[[[-157.898465,21.602321],[-157.898825,21.60291],[-157.899467,21.603566]],[[-157.898224,21.601795],[-157.898385,21.602146]],[[-157.897267,21.598692],[-157.897382,21.599727],[-157.898057,21.60143]],[[-157.896782,21.597365],[-157.897106,21.598166]],[[-157.896539,21.597058],[-157.896676,21.597226]],[[-157.895847,21.595425],[-157.896074,21.596374],[-157.896262,21.596718]],[[-157.8958,21.595218],[-157.895846,21.595419]],[[-157.892704,21.592288],[-157.893613,21.59265],[-157.893915,21.592856],[-157.895551,21.594733],[-157.895779,21.595145]],[[-157.892655,21.592258],[-157.892677,21.592271]],[[-157.88947,21.588828],[-157.889494,21.588856]],[[-157.886977,21.582704],[-157.887347,21.58531],[-157.88762,21.58598],[-157.88827,21.587017]],[[-157.886905,21.58236],[-157.886972,21.582681]],[[-157.886237,21.580604],[-157.886567,21.581238]],[[-157.885918,21.580114],[-157.885931,21.580129]],[[-157.885064,21.579182],[-157.885715,21.579891]],[[-157.88021,21.575788],[-157.883434,21.577525],[-157.883902,21.577927],[-157.884944,21.579053]],[[-157.879922,21.575635],[-157.880096,21.575727]],[[-157.879732,21.575535],[-157.879905,21.575626]],[[-157.879399,21.575361],[-157.879478,21.575402]],[[-157.878388,21.574834],[-157.879215,21.575265]],[[-157.87706,21.573574],[-157.877471,21.574099]],[[-157.875196,21.564979],[-157.875297,21.565465],[-157.875375,21.566975]],[[-157.858852,21.558094],[-157.860328,21.558548],[-157.86188,21.55937],[-157.863556,21.560028],[-157.864216,21.560179]],[[-157.876051,21.559667],[-157.876026,21.559732]],[[-157.864913,21.559621],[-157.864932,21.559568]],[[-157.876312,21.558999],[-157.876308,21.559006]],[[-157.86555,21.558767],[-157.865607,21.558714]],[[-157.876633,21.55732],[-157.876848,21.557776]],[[-157.876391,21.556954],[-157.876507,21.557122]],[[-157.876163,21.556661],[-157.876326,21.556862]],[[-157.875724,21.556209],[-157.876011,21.556492]],[[-157.868799,21.555263],[-157.868886,21.555141]],[[-157.872242,21.55507],[-157.872268,21.555074]],[[-157.869036,21.554965],[-157.86907,21.554931]],[[-157.869227,21.554792],[-157.869701,21.554403]]]},"properties":{"slr_ft":3.2}},{"type":"Feature","id":188,"geometry":{"type":"MultiLineString","coordinates":[[[-157.848913,21.552201],[-157.850313,21.554132]]]},"properties":{"slr_ft":3.2}},{"type":"Feature","id":189,"geometry":{"type":"MultiLineString","coordinates":[[[-157.84763,21.550425],[-157.848913,21.552201]]]},"properties":{"slr_ft":3.2}},{"type":"Feature","id":190,"geometry":{"type":"MultiLineString","coordinates":[[[-157.847044,21.549624],[-157.847226,21.549877]],[[-157.846583,21.545786],[-157.846761,21.546393],[-157.846511,21.547742],[-157.846503,21.548169],[-157.846764,21.549124],[-157.847023,21.549595]]]},"properties":{"slr_ft":3.2}},{"type":"Feature","id":191,"geometry":{"type":"MultiLineString","coordinates":[[[-157.846232,21.545077],[-157.846583,21.545786]],[[-157.840158,21.53606],[-157.841202,21.538737],[-157.84147,21.539892],[-157.842024,21.541498],[-157.842221,21.541876],[-157.842758,21.542376],[-157.844485,21.54328],[-157.845781,21.544582]],[[-157.838936,21.534865],[-157.839993,21.535795]],[[-157.837685,21.533324],[-157.837836,21.533785],[-157.838036,21.534042]],[[-157.837664,21.533261],[-157.837679,21.533306]],[[-157.836951,21.53177],[-157.837575,21.53299]],[[-157.836732,21.531395],[-157.836893,21.531671]],[[-157.836479,21.530964],[-157.836665,21.531281]],[[-157.834989,21.527552],[-157.83552,21.529295],[-157.836424,21.530869]],[[-157.834959,21.527452],[-157.834975,21.527506]],[[-157.836237,21.517687],[-157.835839,21.51808],[-157.835599,21.518611],[-157.834596,21.525738],[-157.834615,21.526274],[-157.834947,21.52741]],[[-157.837042,21.517326],[-157.836457,21.517556]]]},"properties":{"slr_ft":3.2}},{"type":"Feature","id":192,"geometry":{"type":"MultiLineString","coordinates":[[[-158.227932,21.51467],[-158.228338,21.512241]],[[-158.228366,21.512095],[-158.228591,21.510949]],[[-158.228607,21.51087],[-158.228702,21.510313]],[[-158.22873,21.510112],[-158.228819,21.509334]],[[-158.228882,21.508753],[-158.229033,21.507357]],[[-158.229121,21.506556],[-158.229395,21.504065]],[[-158.229593,21.502271],[-158.229619,21.502035]],[[-158.229633,21.501902],[-158.229682,21.500412]],[[-158.229415,21.49851],[-158.229096,21.496411]],[[-158.228907,21.4915],[-158.229231,21.489141]]]},"properties":{"slr_ft":3.2}},{"type":"Feature","id":194,"geometry":{"type":"MultiLineString","coordinates":[[[-158.222343,21.478528],[-158.22124,21.477984],[-158.22035,21.477311],[-158.219614,21.47649],[-158.218977,21.47541]]]},"properties":{"slr_ft":3.2}},{"type":"Feature","id":196,"geometry":{"type":"MultiLineString","coordinates":[[[-157.844199,21.469636],[-157.844456,21.470378]],[[-157.843825,21.468568],[-157.843828,21.468577]],[[-157.843822,21.468559],[-157.843824,21.468565]],[[-157.843749,21.468346],[-157.84376,21.468378]],[[-157.843683,21.468169],[-157.843747,21.468341]],[[-157.843657,21.468114],[-157.843662,21.468124]]]},"properties":{"slr_ft":3.2}},{"type":"Feature","id":197,"geometry":{"type":"MultiLineString","coordinates":[[[-157.843653,21.46807],[-157.843657,21.468114]],[[-157.843611,21.467753],[-157.843625,21.467871]]]},"properties":{"slr_ft":3.2}},{"type":"Feature","id":198,"geometry":{"type":"MultiLineString","coordinates":[[[-158.213238,21.464617],[-158.213101,21.464357]],[[-158.212937,21.464053],[-158.212919,21.464022]]]},"properties":{"slr_ft":3.2}},{"type":"Feature","id":199,"geometry":{"type":"MultiLineString","coordinates":[[[-157.843245,21.464273],[-157.843301,21.464842]]]},"properties":{"slr_ft":3.2}},{"type":"Feature","id":200,"geometry":{"type":"MultiLineString","coordinates":[[[-158.212919,21.464022],[-158.212737,21.463748]],[[-158.212723,21.463727],[-158.212678,21.463666]],[[-158.212624,21.463593],[-158.212255,21.463161]],[[-158.21223,21.463134],[-158.2122,21.463104]]]},"properties":{"slr_ft":3.2}},{"type":"Feature","id":201,"geometry":{"type":"MultiLineString","coordinates":[[[-158.20983,21.461609],[-158.20851,21.461013]]]},"properties":{"slr_ft":3.2}},{"type":"Feature","id":202,"geometry":{"type":"MultiLineString","coordinates":[[[-158.20851,21.461013],[-158.206842,21.460244]]]},"properties":{"slr_ft":3.2}},{"type":"Feature","id":203,"geometry":{"type":"MultiLineString","coordinates":[[[-157.843105,21.463314],[-157.843133,21.463468]],[[-157.843061,21.46307],[-157.843103,21.463304]],[[-157.842983,21.462723],[-157.843036,21.462934]],[[-157.842793,21.46232],[-157.842849,21.462418]],[[-157.841869,21.460742],[-157.842736,21.46222]],[[-157.84184,21.460702],[-157.84186,21.460729]],[[-157.841797,21.46064],[-157.84181,21.460658]],[[-157.84157,21.460349],[-157.841793,21.460634]],[[-157.841157,21.459913],[-157.841196,21.459949]]]},"properties":{"slr_ft":3.2}},{"type":"Feature","id":204,"geometry":{"type":"MultiLineString","coordinates":[[[-158.206842,21.460244],[-158.205161,21.459478]]]},"properties":{"slr_ft":3.2}},{"type":"Feature","id":205,"geometry":{"type":"MultiLineString","coordinates":[[[-157.838888,21.458143],[-157.839195,21.458376]],[[-157.838783,21.458063],[-157.838831,21.458099]]]},"properties":{"slr_ft":3.2}},{"type":"Feature","id":206,"geometry":{"type":"MultiLineString","coordinates":[[[-157.826132,21.454262],[-157.826799,21.45547]]]},"properties":{"slr_ft":3.2}},{"type":"Feature","id":207,"geometry":{"type":"MultiLineString","coordinates":[[[-157.826132,21.454261],[-157.826132,21.454262]],[[-157.826123,21.454252],[-157.826123,21.454253]],[[-157.826105,21.454234],[-157.826114,21.454243]],[[-157.82599,21.454116],[-157.826104,21.454233]],[[-157.824984,21.453084],[-157.825989,21.454115]]]},"properties":{"slr_ft":3.2}},{"type":"Feature","id":208,"geometry":{"type":"MultiLineString","coordinates":[[[-158.189189,21.447774],[-158.189066,21.447569]]]},"properties":{"slr_ft":3.2}},{"type":"Feature","id":209,"geometry":{"type":"MultiLineString","coordinates":[[[-158.188698,21.446868],[-158.188246,21.445966]]]},"properties":{"slr_ft":3.2}},{"type":"Feature","id":210,"geometry":{"type":"MultiLineString","coordinates":[[[-158.188246,21.445966],[-158.18805,21.445634]]]},"properties":{"slr_ft":3.2}},{"type":"Feature","id":211,"geometry":{"type":"MultiLineString","coordinates":[[[-158.18805,21.445634],[-158.187738,21.444786]],[[-158.187711,21.444713],[-158.187568,21.44429]]]},"properties":{"slr_ft":3.2}},{"type":"Feature","id":212,"geometry":{"type":"MultiLineString","coordinates":[[[-158.187568,21.44429],[-158.187329,21.44355]]]},"properties":{"slr_ft":3.2}},{"type":"Feature","id":213,"geometry":{"type":"MultiLineString","coordinates":[[[-157.814529,21.448705],[-157.814594,21.449129]],[[-157.811733,21.442895],[-157.812715,21.444463],[-157.814493,21.448593]]]},"properties":{"slr_ft":3.2}},{"type":"Feature","id":214,"geometry":{"type":"MultiLineString","coordinates":[[[-158.179967,21.42898],[-158.179811,21.428881]]]},"properties":{"slr_ft":3.2}},{"type":"Feature","id":215,"geometry":{"type":"MultiLineString","coordinates":[[[-158.179324,21.428449],[-158.178902,21.427857]]]},"properties":{"slr_ft":3.2}},{"type":"Feature","id":216,"geometry":{"type":"MultiLineString","coordinates":[[[-158.178902,21.427857],[-158.178642,21.427247]]]},"properties":{"slr_ft":3.2}},{"type":"Feature","id":217,"geometry":{"type":"MultiLineString","coordinates":[[[-158.178642,21.427247],[-158.178486,21.426634]]]},"properties":{"slr_ft":3.2}},{"type":"Feature","id":218,"geometry":{"type":"MultiLineString","coordinates":[[[-158.178486,21.426634],[-158.178376,21.425938]]]},"properties":{"slr_ft":3.2}},{"type":"Feature","id":219,"geometry":{"type":"MultiLineString","coordinates":[[[-158.178376,21.425938],[-158.178274,21.425284]]]},"properties":{"slr_ft":3.2}},{"type":"Feature","id":220,"geometry":{"type":"MultiLineString","coordinates":[[[-158.178274,21.425284],[-158.178173,21.424633]]]},"properties":{"slr_ft":3.2}},{"type":"Feature","id":221,"geometry":{"type":"MultiLineString","coordinates":[[[-158.178173,21.424633],[-158.17807,21.42398]]]},"properties":{"slr_ft":3.2}},{"type":"Feature","id":222,"geometry":{"type":"MultiLineString","coordinates":[[[-158.17807,21.42398],[-158.177966,21.423322]]]},"properties":{"slr_ft":3.2}},{"type":"Feature","id":223,"geometry":{"type":"MultiLineString","coordinates":[[[-158.177966,21.423322],[-158.177922,21.423047]]]},"properties":{"slr_ft":3.2}},{"type":"Feature","id":224,"geometry":{"type":"MultiLineString","coordinates":[[[-158.177759,21.422034],[-158.177756,21.422017]]]},"properties":{"slr_ft":3.2}},{"type":"Feature","id":225,"geometry":{"type":"MultiLineString","coordinates":[[[-158.177756,21.422017],[-158.177689,21.421599]]]},"properties":{"slr_ft":3.2}},{"type":"Feature","id":226,"geometry":{"type":"MultiLineString","coordinates":[[[-158.177616,21.421142],[-158.177548,21.42071]]]},"properties":{"slr_ft":3.2}},{"type":"Feature","id":227,"geometry":{"type":"MultiLineString","coordinates":[[[-158.177548,21.42071],[-158.177444,21.420056]]]},"properties":{"slr_ft":3.2}},{"type":"Feature","id":228,"geometry":{"type":"MultiLineString","coordinates":[[[-158.177444,21.420056],[-158.177339,21.419401]]]},"properties":{"slr_ft":3.2}},{"type":"Feature","id":229,"geometry":{"type":"MultiLineString","coordinates":[[[-158.177339,21.419401],[-158.177236,21.418748]]]},"properties":{"slr_ft":3.2}},{"type":"Feature","id":230,"geometry":{"type":"MultiLineString","coordinates":[[[-158.177236,21.418748],[-158.177196,21.418496]],[[-158.177151,21.418215],[-158.177131,21.418088]]]},"properties":{"slr_ft":3.2}},{"type":"Feature","id":231,"geometry":{"type":"MultiLineString","coordinates":[[[-158.177131,21.418088],[-158.177119,21.418017]],[[-158.177104,21.417927],[-158.177082,21.417793]]]},"properties":{"slr_ft":3.2}},{"type":"Feature","id":232,"geometry":{"type":"MultiLineString","coordinates":[[[-158.177004,21.417305],[-158.176985,21.417188]]]},"properties":{"slr_ft":3.2}},{"type":"Feature","id":233,"geometry":{"type":"MultiLineString","coordinates":[[[-158.176398,21.412451],[-158.176414,21.412218]]]},"properties":{"slr_ft":3.2}},{"type":"Feature","id":234,"geometry":{"type":"MultiLineString","coordinates":[[[-158.176566,21.40397],[-158.176553,21.403916]]]},"properties":{"slr_ft":3.2}},{"type":"Feature","id":235,"geometry":{"type":"MultiLineString","coordinates":[[[-158.158829,21.394014],[-158.158208,21.393452]],[[-158.157572,21.392863],[-158.157027,21.392358]]]},"properties":{"slr_ft":3.2}},{"type":"Feature","id":236,"geometry":{"type":"MultiLineString","coordinates":[[[-158.15512,21.390591],[-158.154676,21.39018]]]},"properties":{"slr_ft":3.2}},{"type":"Feature","id":237,"geometry":{"type":"MultiLineString","coordinates":[[[-158.153679,21.389257],[-158.153157,21.388774]]]},"properties":{"slr_ft":3.2}},{"type":"Feature","id":238,"geometry":{"type":"MultiLineString","coordinates":[[[-158.153157,21.388774],[-158.152493,21.38816]]]},"properties":{"slr_ft":3.2}},{"type":"Feature","id":239,"geometry":{"type":"MultiLineString","coordinates":[[[-158.149639,21.385517],[-158.148542,21.384496]]]},"properties":{"slr_ft":3.2}},{"type":"Feature","id":240,"geometry":{"type":"MultiLineString","coordinates":[[[-158.148542,21.384496],[-158.147245,21.383294]]]},"properties":{"slr_ft":3.2}},{"type":"Feature","id":241,"geometry":{"type":"MultiLineString","coordinates":[[[-158.134075,21.365424],[-158.132413,21.362553]],[[-158.13165,21.360982],[-158.131239,21.359885]],[[-158.131215,21.359821],[-158.130113,21.356959]],[[-158.130056,21.356813],[-158.129719,21.355858]]]},"properties":{"slr_ft":3.2}},{"type":"Feature","id":242,"geometry":{"type":"MultiLineString","coordinates":[[[-157.685683,21.326716],[-157.688425,21.327959]]]},"properties":{"slr_ft":3.2}},{"type":"Feature","id":243,"geometry":{"type":"MultiLineString","coordinates":[[[-157.865476,21.315405],[-157.865476,21.315405]]]},"properties":{"slr_ft":3.2}},{"type":"Feature","id":244,"geometry":{"type":"MultiLineString","coordinates":[[[-157.865474,21.3154],[-157.865476,21.315405]],[[-157.865402,21.315274],[-157.865464,21.315373]],[[-157.865396,21.315264],[-157.8654,21.31527]],[[-157.865173,21.314711],[-157.865173,21.314712]],[[-157.865118,21.314278],[-157.865169,21.314694]]]},"properties":{"slr_ft":3.2}},{"type":"Feature","id":245,"geometry":{"type":"MultiLineString","coordinates":[[[-157.865118,21.314278],[-157.865115,21.314217]]]},"properties":{"slr_ft":3.2}},{"type":"Feature","id":246,"geometry":{"type":"MultiLineString","coordinates":[[[-157.865128,21.314142],[-157.865115,21.314217]]]},"properties":{"slr_ft":3.2}},{"type":"Feature","id":247,"geometry":{"type":"MultiLineString","coordinates":[[[-157.719944,21.285894],[-157.719563,21.285715]]]},"properties":{"slr_ft":3.2}},{"type":"Feature","id":248,"geometry":{"type":"MultiLineString","coordinates":[[[-157.72506,21.285381],[-157.724835,21.285437]]]},"properties":{"slr_ft":3.2}},{"type":"Feature","id":249,"geometry":{"type":"MultiLineString","coordinates":[[[-157.725656,21.285231],[-157.72506,21.285381]],[[-157.725665,21.285228],[-157.725657,21.28523]]]},"properties":{"slr_ft":3.2}},{"type":"Feature","id":250,"geometry":{"type":"MultiLineString","coordinates":[[[-157.719563,21.285715],[-157.719512,21.28569]],[[-157.717963,21.284661],[-157.717619,21.284431]]]},"properties":{"slr_ft":3.2}},{"type":"Feature","id":251,"geometry":{"type":"MultiLineString","coordinates":[[[-157.717619,21.284431],[-157.715486,21.283002]]]},"properties":{"slr_ft":3.2}},{"type":"Feature","id":252,"geometry":{"type":"MultiLineString","coordinates":[[[-157.732545,21.282349],[-157.73248,21.282355]],[[-157.733072,21.282268],[-157.732971,21.282288]],[[-157.73352,21.282154],[-157.733093,21.282263]]]},"properties":{"slr_ft":3.2}},{"type":"Feature","id":253,"geometry":{"type":"MultiLineString","coordinates":[[[-157.73693,21.281232],[-157.736483,21.281353]]]},"properties":{"slr_ft":3.2}},{"type":"Feature","id":254,"geometry":{"type":"MultiLineString","coordinates":[[[-157.715103,21.28278],[-157.714865,21.282661]],[[-157.714428,21.282466],[-157.713326,21.282068]],[[-157.711105,21.281036],[-157.710762,21.280785]],[[-157.71064,21.28069],[-157.70956,21.27979]],[[-157.709487,21.27973],[-157.709254,21.279536]]]},"properties":{"slr_ft":3.2}},{"type":"Feature","id":255,"geometry":{"type":"MultiLineString","coordinates":[[[-157.70905,21.279372],[-157.708663,21.27906]],[[-157.708591,21.279002],[-157.708556,21.278974]],[[-157.708553,21.278972],[-157.708545,21.278965]],[[-157.708544,21.278964],[-157.708522,21.278947]],[[-157.708515,21.278941],[-157.708511,21.278938]],[[-157.708506,21.278934],[-157.708228,21.278711]],[[-157.70773,21.278305],[-157.707506,21.278115]],[[-157.707411,21.278035],[-157.707405,21.27803]],[[-157.707401,21.278026],[-157.707396,21.278022]],[[-157.70739,21.278017],[-157.706975,21.277665]],[[-157.70697,21.277661],[-157.70686,21.277568]],[[-157.706851,21.277561],[-157.70685,21.27756]],[[-157.706787,21.277506],[-157.706783,21.277503]],[[-157.706776,21.277497],[-157.706774,21.277495]],[[-157.706711,21.277443],[-157.706707,21.277439]],[[-157.7067,21.277433],[-157.706697,21.277431]]]},"properties":{"slr_ft":3.2}},{"type":"Feature","id":256,"geometry":{"type":"MultiLineString","coordinates":[[[-157.674582,21.285497],[-157.673582,21.286024]]]},"properties":{"slr_ft":3.2}},{"type":"Feature","id":257,"geometry":{"type":"MultiLineString","coordinates":[[[-157.7092,21.279493],[-157.70905,21.279372]]]},"properties":{"slr_ft":3.2}},{"type":"Feature","id":258,"geometry":{"type":"MultiLineString","coordinates":[[[-157.864221,21.314852],[-157.864222,21.315609]]]},"properties":{"slr_ft":3.2}},{"type":"Feature","id":259,"geometry":{"type":"MultiLineString","coordinates":[[[-157.864228,21.314552],[-157.864221,21.314852]]]},"properties":{"slr_ft":3.2}},{"type":"Feature","id":260,"geometry":{"type":"MultiLineString","coordinates":[[[-157.85074,21.296826],[-157.850668,21.296775]],[[-157.850662,21.296771],[-157.850591,21.296724]]]},"properties":{"slr_ft":3.2}},{"type":"Feature","id":261,"geometry":{"type":"MultiLineString","coordinates":[[[-157.848258,21.295644],[-157.848257,21.295643]]]},"properties":{"slr_ft":3.2}},{"type":"Feature","id":262,"geometry":{"type":"MultiLineString","coordinates":[[[-157.858023,21.295085],[-157.857757,21.294963]]]},"properties":{"slr_ft":3.2}},{"type":"Feature","id":263,"geometry":{"type":"MultiLineString","coordinates":[[[-157.857757,21.294963],[-157.857585,21.294792],[-157.855907,21.294067],[-157.854666,21.293314]],[[-157.854664,21.293312],[-157.854657,21.293308]],[[-157.854649,21.293303],[-157.854637,21.293296]],[[-157.854634,21.293294],[-157.854628,21.29329]],[[-157.854619,21.293285],[-157.854618,21.293285]],[[-157.854604,21.293276],[-157.854599,21.293273]],[[-157.854589,21.293267],[-157.85458,21.293261]],[[-157.854574,21.293257],[-157.85457,21.293255]],[[-157.854544,21.293239],[-157.854541,21.293238]],[[-157.854499,21.293212],[-157.854474,21.293197]],[[-157.854469,21.293193],[-157.854465,21.293191]],[[-157.854454,21.293184],[-157.854068,21.292948]]]},"properties":{"slr_ft":3.2}},{"type":"Feature","id":264,"geometry":{"type":"MultiLineString","coordinates":[[[-157.837825,21.290999],[-157.837192,21.290725]]]},"properties":{"slr_ft":3.2}},{"type":"Feature","id":265,"geometry":{"type":"MultiLineString","coordinates":[[[-157.837192,21.290725],[-157.836566,21.290574]]]},"properties":{"slr_ft":3.2}},{"type":"Feature","id":266,"geometry":{"type":"MultiLineString","coordinates":[[[-157.836566,21.290574],[-157.83619,21.290549]],[[-157.836171,21.290549],[-157.836026,21.290546]],[[-157.835958,21.290546],[-157.835939,21.290546]]]},"properties":{"slr_ft":3.2}},{"type":"Feature","id":267,"geometry":{"type":"MultiLineString","coordinates":[[[-157.835525,21.290534],[-157.835467,21.290531]],[[-157.834716,21.290333],[-157.834639,21.290305]]]},"properties":{"slr_ft":3.2}},{"type":"Feature","id":268,"geometry":{"type":"MultiLineString","coordinates":[[[-157.834639,21.290305],[-157.834566,21.290279]],[[-157.834246,21.290164],[-157.833494,21.289894]]]},"properties":{"slr_ft":3.2}},{"type":"Feature","id":269,"geometry":{"type":"MultiLineString","coordinates":[[[-157.833494,21.289894],[-157.833467,21.289884]]]},"properties":{"slr_ft":3.2}},{"type":"Feature","id":270,"geometry":{"type":"MultiLineString","coordinates":[[[-157.854068,21.292948],[-157.8534,21.292545]],[[-157.853399,21.292545],[-157.853371,21.292528]],[[-157.853369,21.292526],[-157.853294,21.292481]],[[-157.853293,21.292481],[-157.853265,21.292464]],[[-157.853263,21.292463],[-157.853237,21.292447]],[[-157.853233,21.292444],[-157.853227,21.292441]],[[-157.853218,21.292435],[-157.853208,21.292429]],[[-157.853202,21.292426],[-157.853198,21.292423]],[[-157.853172,21.292408],[-157.853169,21.292406]],[[-157.853156,21.292399],[-157.85315,21.292395]],[[-157.852639,21.292142],[-157.852632,21.292139]],[[-157.852616,21.292133],[-157.852603,21.292128]],[[-157.852592,21.292124],[-157.852545,21.292106]],[[-157.852544,21.292105],[-157.851707,21.291868],[-157.850589,21.291748],[-157.849916,21.291599],[-157.846669,21.290332]],[[-157.846666,21.290331],[-157.84666,21.290328]],[[-157.846643,21.290321],[-157.846631,21.290316]],[[-157.84662,21.290312],[-157.846612,21.290309]],[[-157.846597,21.290303],[-157.846593,21.290301]],[[-157.846574,21.290294],[-157.846564,21.29029]],[[-157.846551,21.290285],[-157.846535,21.290278]],[[-157.846528,21.290275],[-157.846506,21.290267]],[[-157.846505,21.290266],[-157.846487,21.290259]],[[-157.846482,21.290257],[-157.846468,21.290251]],[[-157.846459,21.290248],[-157.846439,21.29024]],[[-157.846436,21.290239],[-157.8464,21.290225]],[[-157.846388,21.29022],[-157.846352,21.290207]],[[-157.846339,21.290202],[-157.84552,21.289928],[-157.843111,21.289314]],[[-157.843104,21.289312],[-157.843072,21.289304]],[[-157.843067,21.289303],[-157.843063,21.289302]],[[-157.842004,21.289037],[-157.841722,21.288966]]]},"properties":{"slr_ft":3.2}},{"type":"Feature","id":271,"geometry":{"type":"MultiLineString","coordinates":[[[-157.841722,21.288966],[-157.84152,21.288917]]]},"properties":{"slr_ft":3.2}},{"type":"Feature","id":272,"geometry":{"type":"MultiLineString","coordinates":[[[-157.830516,21.288918],[-157.830514,21.288917]],[[-157.830467,21.288901],[-157.830462,21.288899]],[[-157.830448,21.288894],[-157.830437,21.28889]],[[-157.830429,21.288887],[-157.830411,21.288881]],[[-157.8304,21.288877],[-157.830385,21.288871]],[[-157.830381,21.28887],[-157.830359,21.288862]],[[-157.830343,21.288856],[-157.830334,21.288853]],[[-157.830333,21.288853],[-157.830127,21.288779]]]},"properties":{"slr_ft":3.2}},{"type":"Feature","id":273,"geometry":{"type":"MultiLineString","coordinates":[[[-157.840985,21.288729],[-157.84152,21.288917]],[[-157.840976,21.288724],[-157.840984,21.288729]],[[-157.840956,21.288714],[-157.840967,21.28872]],[[-157.840937,21.288703],[-157.84095,21.28871]],[[-157.840928,21.288698],[-157.840934,21.288701]]]},"properties":{"slr_ft":3.2}},{"type":"Feature","id":274,"geometry":{"type":"MultiLineString","coordinates":[[[-157.829929,21.288708],[-157.829645,21.288604]],[[-157.829641,21.288603],[-157.82962,21.288595]],[[-157.829612,21.288592],[-157.829595,21.288586]],[[-157.829593,21.288585],[-157.829468,21.28854]],[[-157.829468,21.28854],[-157.829393,21.288512]],[[-157.829372,21.288505],[-157.829367,21.288503]],[[-157.829362,21.288501],[-157.829342,21.288494]],[[-157.829295,21.288477],[-157.829292,21.288475]]]},"properties":{"slr_ft":3.2}},{"type":"Feature","id":275,"geometry":{"type":"MultiLineString","coordinates":[[[-157.826506,21.287599],[-157.826496,21.287598]],[[-157.826468,21.287594],[-157.826424,21.287588]],[[-157.826381,21.287583],[-157.826351,21.287579]],[[-157.826285,21.28757],[-157.82628,21.287569]],[[-157.826208,21.287546],[-157.826093,21.28751]],[[-157.826073,21.287504],[-157.826054,21.287498]],[[-157.826046,21.287495],[-157.826045,21.287495]]]},"properties":{"slr_ft":3.2}},{"type":"Feature","id":276,"geometry":{"type":"MultiLineString","coordinates":[[[-157.826025,21.287493],[-157.826006,21.287492]]]},"properties":{"slr_ft":3.2}},{"type":"Feature","id":277,"geometry":{"type":"MultiLineString","coordinates":[[[-157.839811,21.286588],[-157.839243,21.285897]],[[-157.839243,21.285897],[-157.839224,21.285875]],[[-157.83922,21.28587],[-157.839215,21.285864]],[[-157.839212,21.285861],[-157.839205,21.285853]],[[-157.839205,21.285852],[-157.839186,21.28583]],[[-157.839166,21.285806],[-157.839157,21.285797]],[[-157.838939,21.285631],[-157.838887,21.285603]]]},"properties":{"slr_ft":3.2}},{"type":"Feature","id":278,"geometry":{"type":"MultiLineString","coordinates":[[[-157.835289,21.285006],[-157.835279,21.285009]],[[-157.835716,21.284876],[-157.835298,21.285004]]]},"properties":{"slr_ft":3.2}},{"type":"Feature","id":279,"geometry":{"type":"MultiLineString","coordinates":[[[-157.836581,21.284561],[-157.835716,21.284876]],[[-157.838278,21.284808],[-157.837885,21.284578]],[[-157.837866,21.28457],[-157.837863,21.284569]],[[-157.836659,21.284534],[-157.836632,21.284543]]]},"properties":{"slr_ft":3.2}},{"type":"Feature","id":280,"geometry":{"type":"MultiLineString","coordinates":[[[-158.094874,21.609192],[-158.0949,21.609167]],[[-158.094914,21.609153],[-158.095086,21.608986]]]},"properties":{"slr_ft":3.2}},{"type":"Feature","id":281,"geometry":{"type":"MultiLineString","coordinates":[[[-158.102751,21.598606],[-158.103206,21.597931],[-158.103076,21.596141]],[[-158.103072,21.596089],[-158.103042,21.595682],[-158.103244,21.594609]]]},"properties":{"slr_ft":3.2}},{"type":"Feature","id":282,"geometry":{"type":"MultiLineString","coordinates":[[[-158.231464,21.537761],[-158.231058,21.537392]],[[-158.24017,21.546128],[-158.240168,21.546115]],[[-158.24688,21.553811],[-158.245863,21.552872],[-158.245008,21.551911],[-158.244183,21.551375],[-158.243564,21.550811],[-158.240482,21.547714],[-158.24027,21.547302],[-158.240182,21.546188]]]},"properties":{"slr_ft":3.2}},{"type":"Feature","id":99,"geometry":{"type":"MultiLineString","coordinates":[[[-158.010307,21.695005],[-158.010433,21.695015]]]},"properties":{"slr_ft":2}},{"type":"Feature","id":100,"geometry":{"type":"MultiLineString","coordinates":[[[-158.039687,21.674431],[-158.040901,21.673286]]]},"properties":{"slr_ft":2}},{"type":"Feature","id":101,"geometry":{"type":"MultiLineString","coordinates":[[[-158.040901,21.673286],[-158.041771,21.672497]],[[-158.048059,21.66682],[-158.049859,21.665199]],[[-158.050811,21.664342],[-158.051869,21.663393]],[[-158.054662,21.660864],[-158.054808,21.660734]]]},"properties":{"slr_ft":2}},{"type":"Feature","id":102,"geometry":{"type":"MultiLineString","coordinates":[[[-158.063175,21.645907],[-158.063211,21.645831]]]},"properties":{"slr_ft":2}},{"type":"Feature","id":103,"geometry":{"type":"MultiLineString","coordinates":[[[-158.063211,21.645831],[-158.063229,21.645792]]]},"properties":{"slr_ft":2}},{"type":"Feature","id":104,"geometry":{"type":"MultiLineString","coordinates":[[[-158.06447,21.63819],[-158.064999,21.637952]],[[-158.06532,21.637926],[-158.065357,21.637925]]]},"properties":{"slr_ft":2}},{"type":"Feature","id":105,"geometry":{"type":"MultiLineString","coordinates":[[[-158.071771,21.630679],[-158.071905,21.630479]]]},"properties":{"slr_ft":2}},{"type":"Feature","id":106,"geometry":{"type":"MultiLineString","coordinates":[[[-158.076778,21.625023],[-158.077133,21.624784]],[[-158.081879,21.621502],[-158.081901,21.621485]],[[-158.08201,21.621403],[-158.082056,21.621367]],[[-158.082124,21.621315],[-158.082138,21.621305]],[[-158.082173,21.621278],[-158.082197,21.62126]]]},"properties":{"slr_ft":2}},{"type":"Feature","id":107,"geometry":{"type":"MultiLineString","coordinates":[[[-158.085258,21.618621],[-158.08721,21.616708]],[[-158.087707,21.616221],[-158.087843,21.616087]]]},"properties":{"slr_ft":2}},{"type":"Feature","id":108,"geometry":{"type":"MultiLineString","coordinates":[[[-157.91319,21.614903],[-157.913222,21.615057]],[[-157.912165,21.61314],[-157.912907,21.614179],[-157.913137,21.614677]]]},"properties":{"slr_ft":2}},{"type":"Feature","id":109,"geometry":{"type":"MultiLineString","coordinates":[[[-157.912162,21.613135],[-157.912165,21.61314]],[[-157.910952,21.611451],[-157.911253,21.611869]],[[-157.910638,21.611013],[-157.91082,21.611266]],[[-157.91059,21.610947],[-157.910623,21.610992]],[[-157.91023,21.610447],[-157.910434,21.610729]],[[-157.9093,21.609093],[-157.909632,21.609618]]]},"properties":{"slr_ft":2}},{"type":"Feature","id":110,"geometry":{"type":"MultiLineString","coordinates":[[[-157.908254,21.607632],[-157.90866,21.608064],[-157.9093,21.609093]]]},"properties":{"slr_ft":2}},{"type":"Feature","id":111,"geometry":{"type":"MultiLineString","coordinates":[[[-157.902953,21.605892],[-157.90468,21.606715],[-157.905467,21.606904]]]},"properties":{"slr_ft":2}},{"type":"Feature","id":112,"geometry":{"type":"MultiLineString","coordinates":[[[-157.899467,21.603566],[-157.901375,21.605085],[-157.902953,21.605892]]]},"properties":{"slr_ft":2}},{"type":"Feature","id":113,"geometry":{"type":"MultiLineString","coordinates":[[[-158.103244,21.594609],[-158.103342,21.594092]]]},"properties":{"slr_ft":2}},{"type":"Feature","id":114,"geometry":{"type":"MultiLineString","coordinates":[[[-158.17852,21.579567],[-158.181994,21.580129]],[[-158.214631,21.57936],[-158.216443,21.578806]],[[-158.228214,21.578346],[-158.229676,21.578469]],[[-158.217763,21.5784],[-158.218876,21.578067]]]},"properties":{"slr_ft":2}},{"type":"Feature","id":115,"geometry":{"type":"MultiLineString","coordinates":[[[-157.858653,21.558037],[-157.858852,21.558094]]]},"properties":{"slr_ft":2}},{"type":"Feature","id":116,"geometry":{"type":"MultiLineString","coordinates":[[[-157.856257,21.557344],[-157.856987,21.557555]]]},"properties":{"slr_ft":2}},{"type":"Feature","id":117,"geometry":{"type":"MultiLineString","coordinates":[[[-157.850313,21.554132],[-157.851057,21.554824]]]},"properties":{"slr_ft":2}},{"type":"Feature","id":118,"geometry":{"type":"MultiLineString","coordinates":[[[-157.898654,21.602678],[-157.899467,21.603566]],[[-157.898442,21.60227],[-157.898447,21.602282]],[[-157.897367,21.599658],[-157.897947,21.601192]],[[-157.895881,21.595572],[-157.896036,21.596252],[-157.8962,21.596627]],[[-157.895391,21.594549],[-157.89546,21.594629]],[[-157.895191,21.594318],[-157.895378,21.594534]],[[-157.894805,21.593874],[-157.894807,21.593877]],[[-157.894757,21.593818],[-157.894768,21.593832]],[[-157.894251,21.593233],[-157.894715,21.59377]],[[-157.894219,21.593196],[-157.89423,21.593209]],[[-157.894174,21.593144],[-157.894182,21.593154]],[[-157.893942,21.592882],[-157.894074,21.593028]],[[-157.893825,21.592782],[-157.893834,21.592789]],[[-157.893613,21.59265],[-157.89362,21.592654]],[[-157.88947,21.588828],[-157.889494,21.588856]],[[-157.886999,21.58281],[-157.887347,21.58531],[-157.887543,21.585831],[-157.887875,21.586393]],[[-157.886932,21.582488],[-157.886978,21.582707]],[[-157.883032,21.577288],[-157.88364,21.577681],[-157.88436,21.578421]],[[-157.882295,21.576893],[-157.882521,21.577013]],[[-157.881324,21.576379],[-157.881376,21.576407]],[[-157.875325,21.56638],[-157.875327,21.566421]],[[-157.87519,21.564964],[-157.875297,21.565465],[-157.875319,21.5662]],[[-157.875518,21.562226],[-157.875492,21.562275]],[[-157.861627,21.559246],[-157.863556,21.560028],[-157.864185,21.560175]],[[-157.875919,21.560012],[-157.875889,21.560091]],[[-157.876063,21.559635],[-157.876018,21.559753]],[[-157.858852,21.558094],[-157.86014,21.558477],[-157.861177,21.558968]],[[-157.876457,21.557047],[-157.87648,21.55708]],[[-157.869291,21.554739],[-157.869642,21.554452]]]},"properties":{"slr_ft":2}},{"type":"Feature","id":119,"geometry":{"type":"MultiLineString","coordinates":[[[-157.848913,21.552201],[-157.850313,21.554132]]]},"properties":{"slr_ft":2}},{"type":"Feature","id":120,"geometry":{"type":"MultiLineString","coordinates":[[[-157.847982,21.550919],[-157.848913,21.552201]]]},"properties":{"slr_ft":2}},{"type":"Feature","id":121,"geometry":{"type":"MultiLineString","coordinates":[[[-157.846744,21.546559],[-157.846494,21.548005],[-157.846728,21.549016]],[[-157.846759,21.546428],[-157.84675,21.546521]],[[-157.846586,21.545792],[-157.846732,21.546142]]]},"properties":{"slr_ft":2}},{"type":"Feature","id":122,"geometry":{"type":"MultiLineString","coordinates":[[[-157.846546,21.545712],[-157.846553,21.545728]],[[-157.846304,21.545212],[-157.846383,21.54537]],[[-157.840296,21.536406],[-157.841202,21.538737],[-157.84147,21.539892],[-157.842024,21.541498],[-157.842221,21.541876],[-157.842758,21.542376],[-157.844485,21.54328],[-157.845767,21.544568]],[[-157.839082,21.534983],[-157.839427,21.535262]],[[-157.83764,21.533188],[-157.837836,21.533785],[-157.838085,21.534093]],[[-157.837595,21.533052],[-157.837623,21.533137]],[[-157.8371,21.532023],[-157.837578,21.532999]],[[-157.836462,21.530935],[-157.83647,21.530948]],[[-157.835581,21.529424],[-157.836431,21.530881]],[[-157.835538,21.529334],[-157.835577,21.529417]],[[-157.835391,21.528905],[-157.835532,21.529321]],[[-157.834752,21.526754],[-157.834766,21.526802]],[[-157.834821,21.52413],[-157.834585,21.525853],[-157.834666,21.526464]],[[-157.834854,21.523897],[-157.834834,21.52404]],[[-157.834889,21.523647],[-157.834869,21.523789]],[[-157.834917,21.523444],[-157.834899,21.523576]],[[-157.835649,21.518445],[-157.835032,21.522621]],[[-157.83624,21.517685],[-157.836168,21.517737]],[[-157.836799,21.517417],[-157.836398,21.517586]]]},"properties":{"slr_ft":2}},{"type":"Feature","id":123,"geometry":{"type":"MultiLineString","coordinates":[[[-158.227956,21.514362],[-158.228318,21.512339]],[[-158.228378,21.512032],[-158.228557,21.511123]],[[-158.228714,21.510226],[-158.228802,21.509487]],[[-158.228803,21.509481],[-158.22882,21.509324]],[[-158.228926,21.50835],[-158.228941,21.508212]],[[-158.229126,21.506513],[-158.229355,21.504427]],[[-158.22936,21.504387],[-158.229366,21.504334]],[[-158.229372,21.504273],[-158.229394,21.504076]],[[-158.229605,21.502159],[-158.229698,21.500914]],[[-158.229398,21.498396],[-158.229106,21.496477]],[[-158.228955,21.491153],[-158.229226,21.489178]]]},"properties":{"slr_ft":2}},{"type":"Feature","id":124,"geometry":{"type":"MultiLineString","coordinates":[[[-157.849923,21.488556],[-157.850029,21.488846]],[[-157.849912,21.488529],[-157.849921,21.488553]],[[-157.849909,21.48852],[-157.849912,21.488528]],[[-157.849901,21.488502],[-157.849902,21.488504]],[[-157.84985,21.488375],[-157.849865,21.488411]],[[-157.849733,21.488103],[-157.849836,21.488342]],[[-157.849729,21.488094],[-157.849732,21.4881]],[[-157.849605,21.487804],[-157.849683,21.487986]],[[-157.849465,21.487478],[-157.849527,21.487623]],[[-157.849445,21.487433],[-157.849447,21.487438]],[[-157.849438,21.487416],[-157.849441,21.487424]],[[-157.849348,21.487206],[-157.84943,21.487397]],[[-157.849296,21.487085],[-157.849297,21.487088]],[[-157.849254,21.486988],[-157.849293,21.487079]],[[-157.849227,21.486925],[-157.849239,21.486952]],[[-157.848924,21.486299],[-157.848963,21.486372]],[[-157.848849,21.486173],[-157.848868,21.486205]],[[-157.848562,21.485747],[-157.848582,21.485774]]]},"properties":{"slr_ft":2}},{"type":"Feature","id":125,"geometry":{"type":"MultiLineString","coordinates":[[[-158.222308,21.478512],[-158.221328,21.478037],[-158.220501,21.477445],[-158.219735,21.476649],[-158.219167,21.475773]]]},"properties":{"slr_ft":2}},{"type":"Feature","id":126,"geometry":{"type":"MultiLineString","coordinates":[[[-157.844581,21.471767],[-157.84458,21.471771]],[[-157.84451,21.470533],[-157.844538,21.470614]],[[-157.844503,21.470515],[-157.844504,21.470516]],[[-157.844484,21.47046],[-157.844485,21.470462]],[[-157.844469,21.470415],[-157.844476,21.470435]],[[-157.844456,21.470378],[-157.844466,21.470407]]]},"properties":{"slr_ft":2}},{"type":"Feature","id":127,"geometry":{"type":"MultiLineString","coordinates":[[[-157.844205,21.469654],[-157.844456,21.470378]]]},"properties":{"slr_ft":2}},{"type":"Feature","id":128,"geometry":{"type":"MultiLineString","coordinates":[[[-158.212931,21.464043],[-158.212919,21.464022]]]},"properties":{"slr_ft":2}},{"type":"Feature","id":129,"geometry":{"type":"MultiLineString","coordinates":[[[-157.843284,21.46467],[-157.84329,21.464734]],[[-157.843247,21.464291],[-157.843279,21.464616]]]},"properties":{"slr_ft":2}},{"type":"Feature","id":130,"geometry":{"type":"MultiLineString","coordinates":[[[-158.212919,21.464022],[-158.212786,21.463818]],[[-158.212454,21.463383],[-158.212365,21.463279]]]},"properties":{"slr_ft":2}},{"type":"Feature","id":131,"geometry":{"type":"MultiLineString","coordinates":[[[-158.2084,21.460963],[-158.206842,21.460244]]]},"properties":{"slr_ft":2}},{"type":"Feature","id":132,"geometry":{"type":"MultiLineString","coordinates":[[[-157.842615,21.462009],[-157.842698,21.462154]],[[-157.841981,21.460912],[-157.842402,21.461638]],[[-157.841916,21.460813],[-157.841969,21.460894]],[[-157.841585,21.460368],[-157.841783,21.46062]],[[-157.841167,21.459922],[-157.841181,21.459935]]]},"properties":{"slr_ft":2}},{"type":"Feature","id":133,"geometry":{"type":"MultiLineString","coordinates":[[[-158.206842,21.460244],[-158.205846,21.45979]],[[-158.205711,21.459729],[-158.205602,21.459679]]]},"properties":{"slr_ft":2}},{"type":"Feature","id":134,"geometry":{"type":"MultiLineString","coordinates":[[[-157.826391,21.45467],[-157.826789,21.455451]],[[-157.826386,21.454661],[-157.82639,21.454669]],[[-157.826267,21.454452],[-157.826371,21.454632]],[[-157.82623,21.454398],[-157.826266,21.454452]],[[-157.826224,21.454389],[-157.826228,21.454395]],[[-157.826211,21.45437],[-157.826219,21.454382]],[[-157.826205,21.454361],[-157.826209,21.454368]],[[-157.826198,21.454352],[-157.8262,21.454354]],[[-157.826185,21.454334],[-157.82619,21.454341]],[[-157.826178,21.454325],[-157.826181,21.454328]],[[-157.826165,21.454307],[-157.826171,21.454315]],[[-157.826145,21.45428],[-157.826162,21.454302]]]},"properties":{"slr_ft":2}},{"type":"Feature","id":135,"geometry":{"type":"MultiLineString","coordinates":[[[-157.826087,21.454216],[-157.826095,21.454224]],[[-157.826078,21.454207],[-157.826085,21.454214]],[[-157.825999,21.454125],[-157.826075,21.454204]],[[-157.825981,21.454107],[-157.825989,21.454115]],[[-157.825972,21.454098],[-157.82598,21.454105]],[[-157.825963,21.454089],[-157.82597,21.454096]],[[-157.824989,21.453088],[-157.825961,21.454086]]]},"properties":{"slr_ft":2}},{"type":"Feature","id":136,"geometry":{"type":"MultiLineString","coordinates":[[[-158.188375,21.446223],[-158.188246,21.445966]]]},"properties":{"slr_ft":2}},{"type":"Feature","id":137,"geometry":{"type":"MultiLineString","coordinates":[[[-158.188246,21.445966],[-158.18805,21.445634]]]},"properties":{"slr_ft":2}},{"type":"Feature","id":138,"geometry":{"type":"MultiLineString","coordinates":[[[-158.18805,21.445634],[-158.187794,21.444938]],[[-158.1877,21.444684],[-158.187568,21.44429]]]},"properties":{"slr_ft":2}},{"type":"Feature","id":139,"geometry":{"type":"MultiLineString","coordinates":[[[-158.187568,21.44429],[-158.187554,21.444245]]]},"properties":{"slr_ft":2}},{"type":"Feature","id":140,"geometry":{"type":"MultiLineString","coordinates":[[[-157.814594,21.449103],[-157.814594,21.449121]],[[-157.814566,21.448859],[-157.814586,21.448994]],[[-157.814559,21.448823],[-157.814562,21.448841]],[[-157.814532,21.448714],[-157.814558,21.448821]],[[-157.813463,21.446105],[-157.814484,21.448569]],[[-157.813301,21.445715],[-157.813461,21.4461]],[[-157.813258,21.445616],[-157.8133,21.445714]],[[-157.812014,21.443276],[-157.812624,21.444277],[-157.813253,21.445604]],[[-157.811988,21.44324],[-157.811989,21.44324]],[[-157.811975,21.443222],[-157.811979,21.443227]],[[-157.811962,21.443203],[-157.811969,21.443214]],[[-157.811956,21.443194],[-157.81196,21.4432]],[[-157.811943,21.443176],[-157.81195,21.443187]],[[-157.811936,21.443167],[-157.811941,21.443174]],[[-157.81193,21.443158],[-157.811931,21.44316]],[[-157.81187,21.443076],[-157.811912,21.443134]],[[-157.811768,21.44294],[-157.811769,21.442941]]]},"properties":{"slr_ft":2}},{"type":"Feature","id":141,"geometry":{"type":"MultiLineString","coordinates":[[[-158.179927,21.428954],[-158.179811,21.428881]]]},"properties":{"slr_ft":2}},{"type":"Feature","id":142,"geometry":{"type":"MultiLineString","coordinates":[[[-158.179311,21.428434],[-158.178902,21.427857]]]},"properties":{"slr_ft":2}},{"type":"Feature","id":143,"geometry":{"type":"MultiLineString","coordinates":[[[-158.178902,21.427857],[-158.178642,21.427247]]]},"properties":{"slr_ft":2}},{"type":"Feature","id":144,"geometry":{"type":"MultiLineString","coordinates":[[[-158.178642,21.427247],[-158.178486,21.426634]]]},"properties":{"slr_ft":2}},{"type":"Feature","id":145,"geometry":{"type":"MultiLineString","coordinates":[[[-158.178486,21.426634],[-158.178376,21.425938]]]},"properties":{"slr_ft":2}},{"type":"Feature","id":146,"geometry":{"type":"MultiLineString","coordinates":[[[-158.178376,21.425938],[-158.178274,21.425284]]]},"properties":{"slr_ft":2}},{"type":"Feature","id":147,"geometry":{"type":"MultiLineString","coordinates":[[[-158.178274,21.425284],[-158.178173,21.424633]]]},"properties":{"slr_ft":2}},{"type":"Feature","id":148,"geometry":{"type":"MultiLineString","coordinates":[[[-158.178173,21.424633],[-158.17807,21.42398]]]},"properties":{"slr_ft":2}},{"type":"Feature","id":149,"geometry":{"type":"MultiLineString","coordinates":[[[-158.17807,21.42398],[-158.17802,21.423663]]]},"properties":{"slr_ft":2}},{"type":"Feature","id":150,"geometry":{"type":"MultiLineString","coordinates":[[[-158.177407,21.419827],[-158.177347,21.41945]]]},"properties":{"slr_ft":2}},{"type":"Feature","id":151,"geometry":{"type":"MultiLineString","coordinates":[[[-158.130867,21.358926],[-158.130469,21.357878]],[[-158.12995,21.356537],[-158.129802,21.356148]]]},"properties":{"slr_ft":2}},{"type":"Feature","id":152,"geometry":{"type":"MultiLineString","coordinates":[[[-157.685683,21.326716],[-157.686761,21.327205]]]},"properties":{"slr_ft":2}},{"type":"Feature","id":153,"geometry":{"type":"MultiLineString","coordinates":[[[-157.685014,21.326413],[-157.685683,21.326716]]]},"properties":{"slr_ft":2}},{"type":"Feature","id":154,"geometry":{"type":"MultiLineString","coordinates":[[[-157.714438,21.28247],[-157.71434,21.282431]],[[-157.714258,21.282399],[-157.71361,21.282168]],[[-157.711142,21.281061],[-157.711048,21.280997]]]},"properties":{"slr_ft":2}},{"type":"Feature","id":155,"geometry":{"type":"MultiLineString","coordinates":[[[-157.67465,21.285453],[-157.673749,21.285938]]]},"properties":{"slr_ft":2}},{"type":"Feature","id":156,"geometry":{"type":"MultiLineString","coordinates":[[[-157.857874,21.295017],[-157.857757,21.294963]]]},"properties":{"slr_ft":2}},{"type":"Feature","id":157,"geometry":{"type":"MultiLineString","coordinates":[[[-157.857757,21.294963],[-157.857585,21.294792],[-157.857089,21.294598]]]},"properties":{"slr_ft":2}},{"type":"Feature","id":158,"geometry":{"type":"MultiLineString","coordinates":[[[-157.834678,21.290319],[-157.834639,21.290305]]]},"properties":{"slr_ft":2}},{"type":"Feature","id":159,"geometry":{"type":"MultiLineString","coordinates":[[[-157.834639,21.290305],[-157.834592,21.290288]]]},"properties":{"slr_ft":2}},{"type":"Feature","id":160,"geometry":{"type":"MultiLineString","coordinates":[[[-158.102871,21.598428],[-158.103206,21.597931],[-158.10307,21.596066]],[[-158.103045,21.595725],[-158.103044,21.595671]],[[-158.103052,21.595626],[-158.103055,21.59561]],[[-158.103068,21.595544],[-158.103244,21.594609]]]},"properties":{"slr_ft":2}},{"type":"Feature","id":161,"geometry":{"type":"MultiLineString","coordinates":[[[-158.231372,21.537678],[-158.231142,21.537469]],[[-158.235566,21.541139],[-158.235559,21.541135]],[[-158.246868,21.553798],[-158.245863,21.552872],[-158.245008,21.551911],[-158.244183,21.551375],[-158.243564,21.550811],[-158.240482,21.547714],[-158.24027,21.547302],[-158.240138,21.546002]]]},"properties":{"slr_ft":2}},{"type":"Feature","id":76,"geometry":{"type":"MultiLineString","coordinates":[[[-158.039821,21.674295],[-158.040901,21.673286]]]},"properties":{"slr_ft":1.1}},{"type":"Feature","id":77,"geometry":{"type":"MultiLineString","coordinates":[[[-158.040901,21.673286],[-158.041272,21.672949]],[[-158.054692,21.660837],[-158.054769,21.66077]]]},"properties":{"slr_ft":1.1}},{"type":"Feature","id":78,"geometry":{"type":"MultiLineString","coordinates":[[[-158.082028,21.621389],[-158.082029,21.621388]]]},"properties":{"slr_ft":1.1}},{"type":"Feature","id":79,"geometry":{"type":"MultiLineString","coordinates":[[[-158.085249,21.61863],[-158.086846,21.617064]]]},"properties":{"slr_ft":1.1}},{"type":"Feature","id":80,"geometry":{"type":"MultiLineString","coordinates":[[[-157.913194,21.61492],[-157.913201,21.614956]],[[-157.912964,21.614274],[-157.912985,21.614314]]]},"properties":{"slr_ft":1.1}},{"type":"Feature","id":81,"geometry":{"type":"MultiLineString","coordinates":[[[-157.9093,21.609093],[-157.90953,21.609464]]]},"properties":{"slr_ft":1.1}},{"type":"Feature","id":82,"geometry":{"type":"MultiLineString","coordinates":[[[-157.909241,21.608996],[-157.9093,21.609093]],[[-157.908907,21.608454],[-157.909175,21.60889]],[[-157.908339,21.607707],[-157.908875,21.608402]]]},"properties":{"slr_ft":1.1}},{"type":"Feature","id":83,"geometry":{"type":"MultiLineString","coordinates":[[[-157.904305,21.606537],[-157.905076,21.606827]],[[-157.904091,21.606431],[-157.904093,21.606432]],[[-157.903171,21.605994],[-157.903178,21.605997]]]},"properties":{"slr_ft":1.1}},{"type":"Feature","id":84,"geometry":{"type":"MultiLineString","coordinates":[[[-157.899467,21.603566],[-157.901375,21.605085],[-157.902667,21.605759]]]},"properties":{"slr_ft":1.1}},{"type":"Feature","id":85,"geometry":{"type":"MultiLineString","coordinates":[[[-158.103244,21.594609],[-158.103342,21.594092]]]},"properties":{"slr_ft":1.1}},{"type":"Feature","id":86,"geometry":{"type":"MultiLineString","coordinates":[[[-158.214775,21.579316],[-158.216185,21.578885]],[[-158.228896,21.578418],[-158.228939,21.578423]]]},"properties":{"slr_ft":1.1}},{"type":"Feature","id":87,"geometry":{"type":"MultiLineString","coordinates":[[[-157.850313,21.554132],[-157.850953,21.554754]]]},"properties":{"slr_ft":1.1}},{"type":"Feature","id":102,"geometry":{"type":"MultiLineString","coordinates":[[[-157.826043,21.45417],[-157.826047,21.454174]],[[-157.826034,21.454161],[-157.826037,21.454164]],[[-157.826025,21.454152],[-157.826028,21.454155]],[[-157.826016,21.454143],[-157.826018,21.454145]],[[-157.826008,21.454134],[-157.826008,21.454135]],[[-157.825999,21.454125],[-157.825999,21.454125]],[[-157.824994,21.453093],[-157.825951,21.454076]]]},"properties":{"slr_ft":1.1}},{"type":"Feature","id":103,"geometry":{"type":"MultiLineString","coordinates":[[[-158.188195,21.445866],[-158.18805,21.445634]]]},"properties":{"slr_ft":1.1}},{"type":"Feature","id":104,"geometry":{"type":"MultiLineString","coordinates":[[[-158.18805,21.445634],[-158.187877,21.445163]],[[-158.187692,21.444663],[-158.187568,21.44429]]]},"properties":{"slr_ft":1.1}},{"type":"Feature","id":105,"geometry":{"type":"MultiLineString","coordinates":[[[-158.187568,21.44429],[-158.18756,21.444264]]]},"properties":{"slr_ft":1.1}},{"type":"Feature","id":88,"geometry":{"type":"MultiLineString","coordinates":[[[-157.899348,21.603446],[-157.899467,21.603566]],[[-157.898899,21.602992],[-157.899127,21.603223]],[[-157.897453,21.599952],[-157.897816,21.600909]],[[-157.895932,21.595796],[-157.896127,21.596498]],[[-157.894542,21.593571],[-157.894632,21.593674]],[[-157.894493,21.593514],[-157.89454,21.593568]],[[-157.894445,21.593458],[-157.894449,21.593462]],[[-157.88947,21.588828],[-157.889494,21.588856]],[[-157.887032,21.582975],[-157.887308,21.585149],[-157.887496,21.585729],[-157.887752,21.586197]],[[-157.886934,21.582499],[-157.886975,21.582695]],[[-157.883748,21.577777],[-157.884199,21.578248]],[[-157.881324,21.576379],[-157.881376,21.576407]],[[-157.875189,21.564962],[-157.875282,21.565335]],[[-157.875524,21.562211],[-157.875498,21.562264]],[[-157.862222,21.559505],[-157.863969,21.56014]],[[-157.876057,21.559652],[-157.876017,21.559756]],[[-157.860745,21.558733],[-157.860753,21.558737]],[[-157.860028,21.558438],[-157.860469,21.558607]],[[-157.876864,21.557857],[-157.876868,21.557891]],[[-157.869289,21.554741],[-157.86945,21.55461]]]},"properties":{"slr_ft":1.1}},{"type":"Feature","id":89,"geometry":{"type":"MultiLineString","coordinates":[[[-157.848913,21.552201],[-157.850313,21.554132]]]},"properties":{"slr_ft":1.1}},{"type":"Feature","id":90,"geometry":{"type":"MultiLineString","coordinates":[[[-157.848547,21.551695],[-157.848913,21.552201]]]},"properties":{"slr_ft":1.1}},{"type":"Feature","id":91,"geometry":{"type":"MultiLineString","coordinates":[[[-157.846555,21.547514],[-157.846497,21.548103],[-157.846611,21.548633]],[[-157.846685,21.546865],[-157.846624,21.54718]],[[-157.84674,21.546581],[-157.846724,21.546665]]]},"properties":{"slr_ft":1.1}},{"type":"Feature","id":92,"geometry":{"type":"MultiLineString","coordinates":[[[-157.845552,21.544343],[-157.845751,21.544552]],[[-157.84255,21.542235],[-157.844268,21.543134],[-157.844629,21.543401]],[[-157.84219,21.541828],[-157.842386,21.542083]],[[-157.841261,21.538932],[-157.841491,21.539953]],[[-157.840954,21.538176],[-157.841185,21.538691]],[[-157.840497,21.536985],[-157.840722,21.537611]],[[-157.837668,21.533275],[-157.837836,21.533785],[-157.838065,21.534072]],[[-157.83759,21.533037],[-157.837612,21.533103]],[[-157.837139,21.53209],[-157.837559,21.532943]],[[-157.835631,21.529515],[-157.836466,21.530942]],[[-157.835606,21.52947],[-157.835624,21.529504]],[[-157.835538,21.529334],[-157.835577,21.529417]],[[-157.835517,21.529288],[-157.835529,21.529316]],[[-157.835466,21.529153],[-157.835482,21.5292]],[[-157.83482,21.524135],[-157.834585,21.525853],[-157.834633,21.526347]],[[-157.834842,21.523984],[-157.834837,21.52402]],[[-157.835605,21.518591],[-157.835033,21.522619]],[[-157.836553,21.517512],[-157.83644,21.517564]]]},"properties":{"slr_ft":1.1}},{"type":"Feature","id":93,"geometry":{"type":"MultiLineString","coordinates":[[[-158.227956,21.514362],[-158.228014,21.513919]],[[-158.228033,21.513807],[-158.228076,21.513569]],[[-158.228136,21.513265],[-158.228273,21.512569]],[[-158.22838,21.512027],[-158.228493,21.511448]],[[-158.229157,21.506229],[-158.229207,21.505778]],[[-158.229208,21.505769],[-158.229287,21.505045]],[[-158.229305,21.504883],[-158.229334,21.504624]],[[-158.22936,21.504387],[-158.229366,21.504334]],[[-158.22938,21.498277],[-158.229179,21.496955]],[[-158.229121,21.489941],[-158.229226,21.489178]]]},"properties":{"slr_ft":1.1}},{"type":"Feature","id":94,"geometry":{"type":"MultiLineString","coordinates":[[[-157.84994,21.488602],[-157.850025,21.488836]],[[-157.849909,21.48852],[-157.849912,21.488528]],[[-157.849492,21.487541],[-157.849523,21.487613]]]},"properties":{"slr_ft":1.1}},{"type":"Feature","id":95,"geometry":{"type":"MultiLineString","coordinates":[[[-158.222279,21.478499],[-158.221416,21.478088],[-158.220657,21.477574],[-158.219994,21.476954],[-158.21949,21.476315]]]},"properties":{"slr_ft":1.1}},{"type":"Feature","id":96,"geometry":{"type":"MultiLineString","coordinates":[[[-157.844516,21.470551],[-157.844532,21.470597]],[[-157.844513,21.470542],[-157.844513,21.470543]],[[-157.844462,21.470397],[-157.844466,21.470407]],[[-157.844456,21.470378],[-157.844457,21.47038]]]},"properties":{"slr_ft":1.1}},{"type":"Feature","id":97,"geometry":{"type":"MultiLineString","coordinates":[[[-157.844312,21.469962],[-157.844456,21.470378]],[[-157.844205,21.469654],[-157.844274,21.469854]]]},"properties":{"slr_ft":1.1}},{"type":"Feature","id":98,"geometry":{"type":"MultiLineString","coordinates":[[[-158.20786,21.460714],[-158.206842,21.460244]]]},"properties":{"slr_ft":1.1}},{"type":"Feature","id":99,"geometry":{"type":"MultiLineString","coordinates":[[[-157.842261,21.461392],[-157.842303,21.461465]],[[-157.842235,21.461347],[-157.84226,21.46139]],[[-157.842225,21.461329],[-157.842231,21.46134]],[[-157.842214,21.461311],[-157.842222,21.461323]],[[-157.842209,21.461302],[-157.842212,21.461307]],[[-157.842074,21.461066],[-157.842084,21.461084]],[[-157.842003,21.460948],[-157.842014,21.460966]],[[-157.841997,21.460939],[-157.842003,21.460948]],[[-157.841939,21.460848],[-157.841945,21.460858]],[[-157.841709,21.460521],[-157.841743,21.460567]]]},"properties":{"slr_ft":1.1}},{"type":"Feature","id":100,"geometry":{"type":"MultiLineString","coordinates":[[[-158.206842,21.460244],[-158.206397,21.460041]]]},"properties":{"slr_ft":1.1}},{"type":"Feature","id":101,"geometry":{"type":"MultiLineString","coordinates":[[[-157.826775,21.455422],[-157.82678,21.455432]],[[-157.82658,21.455041],[-157.82677,21.455414]],[[-157.82646,21.454806],[-157.82658,21.455041]],[[-157.826414,21.454715],[-157.826457,21.454799]],[[-157.826405,21.454697],[-157.826409,21.454706]],[[-157.826395,21.454679],[-157.8264,21.454687]],[[-157.826322,21.454543],[-157.826324,21.454545]],[[-157.826312,21.454525],[-157.826314,21.454528]],[[-157.826301,21.454507],[-157.826305,21.454512]],[[-157.82629,21.454488],[-157.826295,21.454497]],[[-157.826284,21.454479],[-157.826286,21.454482]],[[-157.826152,21.454289],[-157.826152,21.454289]]]},"properties":{"slr_ft":1.1}},{"type":"Feature","id":106,"geometry":{"type":"MultiLineString","coordinates":[[[-157.814571,21.448886],[-157.814577,21.448925]],[[-157.814567,21.448868],[-157.814568,21.44887]],[[-157.814554,21.448805],[-157.814558,21.448821]],[[-157.814544,21.448759],[-157.814549,21.448782]],[[-157.814534,21.448723],[-157.81454,21.448743]],[[-157.81447,21.448533],[-157.814483,21.448566]],[[-157.81347,21.446123],[-157.814464,21.44852]],[[-157.813408,21.445969],[-157.813452,21.446078]],[[-157.81332,21.445761],[-157.813404,21.445961]],[[-157.813316,21.445752],[-157.813319,21.445759]],[[-157.813308,21.445733],[-157.81331,21.445736]],[[-157.813289,21.445688],[-157.813291,21.445691]],[[-157.813274,21.445652],[-157.813281,21.445669]],[[-157.813266,21.445634],[-157.813272,21.445646]],[[-157.813262,21.445625],[-157.813262,21.445625]],[[-157.813245,21.445588],[-157.813253,21.445604]],[[-157.812417,21.443943],[-157.813243,21.445584]],[[-157.812408,21.443926],[-157.812409,21.443929]],[[-157.812037,21.443312],[-157.812404,21.44392]],[[-157.812031,21.443303],[-157.812036,21.443311]],[[-157.812026,21.443294],[-157.812027,21.443296]]]},"properties":{"slr_ft":1.1}},{"type":"Feature","id":107,"geometry":{"type":"MultiLineString","coordinates":[[[-158.179923,21.428951],[-158.179811,21.428881]]]},"properties":{"slr_ft":1.1}},{"type":"Feature","id":108,"geometry":{"type":"MultiLineString","coordinates":[[[-158.179308,21.42843],[-158.179135,21.428211]],[[-158.17891,21.42787],[-158.178902,21.427857]]]},"properties":{"slr_ft":1.1}},{"type":"Feature","id":109,"geometry":{"type":"MultiLineString","coordinates":[[[-158.178902,21.427857],[-158.178642,21.427247]]]},"properties":{"slr_ft":1.1}},{"type":"Feature","id":110,"geometry":{"type":"MultiLineString","coordinates":[[[-158.178642,21.427247],[-158.178486,21.426634]]]},"properties":{"slr_ft":1.1}},{"type":"Feature","id":111,"geometry":{"type":"MultiLineString","coordinates":[[[-158.178486,21.426634],[-158.178376,21.425938]]]},"properties":{"slr_ft":1.1}},{"type":"Feature","id":112,"geometry":{"type":"MultiLineString","coordinates":[[[-158.178376,21.425938],[-158.178362,21.425848]],[[-158.17832,21.42558],[-158.178274,21.425284]]]},"properties":{"slr_ft":1.1}},{"type":"Feature","id":113,"geometry":{"type":"MultiLineString","coordinates":[[[-158.178274,21.425284],[-158.178173,21.424633]]]},"properties":{"slr_ft":1.1}},{"type":"Feature","id":114,"geometry":{"type":"MultiLineString","coordinates":[[[-158.178173,21.424633],[-158.178168,21.4246]]]},"properties":{"slr_ft":1.1}},{"type":"Feature","id":115,"geometry":{"type":"MultiLineString","coordinates":[[[-157.714442,21.282472],[-157.714421,21.282463]],[[-157.714242,21.282393],[-157.713767,21.282223]]]},"properties":{"slr_ft":1.1}},{"type":"Feature","id":116,"geometry":{"type":"MultiLineString","coordinates":[[[-157.674661,21.285446],[-157.673966,21.285825]]]},"properties":{"slr_ft":1.1}},{"type":"Feature","id":117,"geometry":{"type":"MultiLineString","coordinates":[[[-157.857826,21.294995],[-157.857757,21.294963]]]},"properties":{"slr_ft":1.1}},{"type":"Feature","id":118,"geometry":{"type":"MultiLineString","coordinates":[[[-157.857757,21.294963],[-157.857585,21.294792],[-157.857137,21.294616]]]},"properties":{"slr_ft":1.1}},{"type":"Feature","id":119,"geometry":{"type":"MultiLineString","coordinates":[[[-157.834678,21.290319],[-157.834639,21.290305]]]},"properties":{"slr_ft":1.1}},{"type":"Feature","id":120,"geometry":{"type":"MultiLineString","coordinates":[[[-157.834639,21.290305],[-157.834592,21.290288]]]},"properties":{"slr_ft":1.1}},{"type":"Feature","id":121,"geometry":{"type":"MultiLineString","coordinates":[[[-158.103025,21.598199],[-158.103206,21.597931],[-158.103081,21.596212]],[[-158.103051,21.595634],[-158.103054,21.595617]],[[-158.103083,21.595465],[-158.103244,21.594609]]]},"properties":{"slr_ft":1.1}},{"type":"Feature","id":122,"geometry":{"type":"MultiLineString","coordinates":[[[-158.242621,21.549863],[-158.240386,21.54759],[-158.24027,21.547302],[-158.240151,21.54605]],[[-158.242836,21.550079],[-158.242734,21.549976]],[[-158.243534,21.55078],[-158.243069,21.550314]],[[-158.244418,21.5515],[-158.243862,21.551082]],[[-158.244953,21.551863],[-158.244879,21.551802]],[[-158.245234,21.552139],[-158.24519,21.55209]],[[-158.246725,21.553641],[-158.245995,21.553],[-158.245433,21.552385]]]},"properties":{"slr_ft":1.1}},{"type":"Feature","id":67,"geometry":{"type":"MultiLineString","coordinates":[[[-158.040133,21.673987],[-158.040901,21.673286]]]},"properties":{"slr_ft":0.5}},{"type":"Feature","id":68,"geometry":{"type":"MultiLineString","coordinates":[[[-158.040901,21.673286],[-158.041275,21.672947]],[[-158.054709,21.660823],[-158.054747,21.660789]]]},"properties":{"slr_ft":0.5}},{"type":"Feature","id":69,"geometry":{"type":"MultiLineString","coordinates":[[[-158.085364,21.618517],[-158.086756,21.617153]]]},"properties":{"slr_ft":0.5}},{"type":"Feature","id":70,"geometry":{"type":"MultiLineString","coordinates":[[[-157.912324,21.61336],[-157.912325,21.613362]]]},"properties":{"slr_ft":0.5}},{"type":"Feature","id":71,"geometry":{"type":"MultiLineString","coordinates":[[[-157.909446,21.609328],[-157.909459,21.609348]],[[-157.909376,21.609214],[-157.909406,21.609263]]]},"properties":{"slr_ft":0.5}},{"type":"Feature","id":72,"geometry":{"type":"MultiLineString","coordinates":[[[-157.908336,21.607704],[-157.90871,21.608135],[-157.909146,21.608844]]]},"properties":{"slr_ft":0.5}},{"type":"Feature","id":73,"geometry":{"type":"MultiLineString","coordinates":[[[-157.901042,21.604833],[-157.901223,21.604974]],[[-157.900005,21.604012],[-157.900718,21.604576]]]},"properties":{"slr_ft":0.5}},{"type":"Feature","id":74,"geometry":{"type":"MultiLineString","coordinates":[[[-158.103244,21.594609],[-158.103342,21.594092]]]},"properties":{"slr_ft":0.5}},{"type":"Feature","id":75,"geometry":{"type":"MultiLineString","coordinates":[[[-158.215282,21.579162],[-158.215976,21.57895]]]},"properties":{"slr_ft":0.5}},{"type":"Feature","id":76,"geometry":{"type":"MultiLineString","coordinates":[[[-157.850313,21.554132],[-157.850558,21.554419]]]},"properties":{"slr_ft":0.5}},{"type":"Feature","id":77,"geometry":{"type":"MultiLineString","coordinates":[[[-157.898978,21.603072],[-157.899036,21.603131]],[[-157.897482,21.600035],[-157.897782,21.600835]],[[-157.896029,21.59622],[-157.89607,21.59636]],[[-157.88947,21.588828],[-157.889494,21.588856]],[[-157.887082,21.583297],[-157.887308,21.585149],[-157.887661,21.586051]],[[-157.886956,21.582603],[-157.886968,21.582662]],[[-157.886934,21.582498],[-157.886952,21.582587]],[[-157.883778,21.577804],[-157.884125,21.578168]],[[-157.881324,21.576379],[-157.881376,21.576407]],[[-157.876051,21.559668],[-157.87605,21.55967]],[[-157.862222,21.559505],[-157.862245,21.559514]]]},"properties":{"slr_ft":0.5}},{"type":"Feature","id":78,"geometry":{"type":"MultiLineString","coordinates":[[[-157.850167,21.553928],[-157.850313,21.554132]]]},"properties":{"slr_ft":0.5}},{"type":"Feature","id":79,"geometry":{"type":"MultiLineString","coordinates":[[[-157.845597,21.544391],[-157.845705,21.544504]],[[-157.84283,21.542415],[-157.843194,21.542597]],[[-157.837668,21.533275],[-157.837836,21.533785],[-157.837984,21.533986]],[[-157.837156,21.532119],[-157.837557,21.532935]],[[-157.835768,21.52975],[-157.83641,21.530846]],[[-157.835708,21.529648],[-157.835753,21.529724]],[[-157.835636,21.529524],[-157.835704,21.52964]],[[-157.835604,21.529466],[-157.83561,21.529478]],[[-157.835557,21.529376],[-157.835563,21.529387]],[[-157.834798,21.524298],[-157.834585,21.525853],[-157.834624,21.526311]],[[-157.835582,21.518703],[-157.835033,21.522617]]]},"properties":{"slr_ft":0.5}},{"type":"Feature","id":80,"geometry":{"type":"MultiLineString","coordinates":[[[-158.227958,21.514345],[-158.228015,21.513913]],[[-158.228041,21.513762],[-158.228114,21.513377]],[[-158.22813,21.513297],[-158.228185,21.513015]],[[-158.228197,21.512953],[-158.228281,21.512528]],[[-158.229152,21.506272],[-158.229287,21.505046]],[[-158.229345,21.504524],[-158.229375,21.504246]],[[-158.229698,21.500911],[-158.229699,21.500886]],[[-158.229384,21.498302],[-158.229182,21.496974]]]},"properties":{"slr_ft":0.5}},{"type":"Feature","id":81,"geometry":{"type":"MultiLineString","coordinates":[[[-157.849943,21.48861],[-157.850022,21.488827]]]},"properties":{"slr_ft":0.5}},{"type":"Feature","id":82,"geometry":{"type":"MultiLineString","coordinates":[[[-158.22227,21.478496],[-158.221505,21.478138],[-158.220737,21.477636],[-158.220133,21.4771],[-158.219588,21.476455]]]},"properties":{"slr_ft":0.5}},{"type":"Feature","id":83,"geometry":{"type":"MultiLineString","coordinates":[[[-157.844522,21.470569],[-157.844523,21.47057]],[[-157.844456,21.470378],[-157.844457,21.47038]]]},"properties":{"slr_ft":0.5}},{"type":"Feature","id":84,"geometry":{"type":"MultiLineString","coordinates":[[[-157.844428,21.470299],[-157.844456,21.470378]],[[-157.844328,21.470008],[-157.844428,21.470297]],[[-157.844321,21.469989],[-157.844325,21.469999]],[[-157.844208,21.469663],[-157.844268,21.469835]]]},"properties":{"slr_ft":0.5}},{"type":"Feature","id":85,"geometry":{"type":"MultiLineString","coordinates":[[[-158.207393,21.460499],[-158.207178,21.460399]],[[-158.207149,21.460386],[-158.206842,21.460244]]]},"properties":{"slr_ft":0.5}},{"type":"Feature","id":86,"geometry":{"type":"MultiLineString","coordinates":[[[-158.206842,21.460244],[-158.206586,21.460127]]]},"properties":{"slr_ft":0.5}},{"type":"Feature","id":87,"geometry":{"type":"MultiLineString","coordinates":[[[-157.826779,21.455431],[-157.82678,21.455432]],[[-157.826752,21.455377],[-157.826761,21.455395]],[[-157.826742,21.455359],[-157.826751,21.455376]],[[-157.826719,21.455313],[-157.826723,21.455321]],[[-157.82671,21.455295],[-157.826713,21.455302]],[[-157.826701,21.455277],[-157.826704,21.455283]],[[-157.826668,21.455214],[-157.826685,21.455246]],[[-157.826659,21.455196],[-157.826666,21.455209]],[[-157.82665,21.455177],[-157.826656,21.45519]],[[-157.82664,21.455159],[-157.826647,21.455172]],[[-157.826636,21.45515],[-157.826637,21.455153]],[[-157.826627,21.455132],[-157.826628,21.455134]],[[-157.826617,21.455114],[-157.826618,21.455116]],[[-157.826608,21.455096],[-157.826609,21.455097]],[[-157.826566,21.455014],[-157.826571,21.455023]],[[-157.826557,21.454996],[-157.826561,21.455004]],[[-157.826539,21.45496],[-157.826542,21.454967]],[[-157.826525,21.454933],[-157.826533,21.454948]],[[-157.82652,21.454924],[-157.826523,21.454929]],[[-157.826502,21.454887],[-157.826504,21.454892]],[[-157.826483,21.454851],[-157.826485,21.454855]],[[-157.826446,21.454779],[-157.826447,21.454781]],[[-157.826437,21.45476],[-157.826438,21.454762]]]},"properties":{"slr_ft":0.5}},{"type":"Feature","id":88,"geometry":{"type":"MultiLineString","coordinates":[[[-157.824994,21.453093],[-157.825951,21.454076]]]},"properties":{"slr_ft":0.5}},{"type":"Feature","id":89,"geometry":{"type":"MultiLineString","coordinates":[[[-157.814567,21.448868],[-157.814568,21.44887]],[[-157.814546,21.448769],[-157.814549,21.448782]],[[-157.814539,21.448741],[-157.81454,21.448743]],[[-157.814477,21.448551],[-157.814483,21.448566]],[[-157.814473,21.448542],[-157.814474,21.448543]],[[-157.814342,21.448225],[-157.814464,21.44852]],[[-157.813529,21.446268],[-157.814341,21.448224]],[[-157.813522,21.44625],[-157.813527,21.446263]],[[-157.813474,21.446132],[-157.813518,21.446239]],[[-157.81347,21.446123],[-157.81347,21.446123]],[[-157.813426,21.446014],[-157.813452,21.446077]],[[-157.813419,21.445996],[-157.813423,21.446007]],[[-157.813411,21.445978],[-157.813414,21.445984]],[[-157.813404,21.44596],[-157.813404,21.445961]],[[-157.813392,21.445933],[-157.813395,21.445938]],[[-157.813377,21.445897],[-157.813385,21.445916]],[[-157.81337,21.445878],[-157.813376,21.445893]],[[-157.813358,21.445851],[-157.813366,21.445871]],[[-157.813354,21.445842],[-157.813357,21.445848]],[[-157.813347,21.445824],[-157.813347,21.445826]],[[-157.813335,21.445797],[-157.813338,21.445804]],[[-157.813324,21.44577],[-157.813328,21.445781]],[[-157.813208,21.445507],[-157.813243,21.445584]],[[-157.813199,21.445489],[-157.813205,21.445502]],[[-157.813187,21.445462],[-157.813196,21.445482]],[[-157.813178,21.445443],[-157.813186,21.445461]],[[-157.81314,21.445362],[-157.813177,21.445441]],[[-157.812436,21.443975],[-157.813139,21.445359]],[[-157.812427,21.443959],[-157.812431,21.443966]],[[-157.812398,21.44391],[-157.812399,21.443911]],[[-157.812042,21.443321],[-157.812393,21.443902]]]},"properties":{"slr_ft":0.5}},{"type":"Feature","id":90,"geometry":{"type":"MultiLineString","coordinates":[[[-158.179881,21.428926],[-158.179811,21.428881]]]},"properties":{"slr_ft":0.5}},{"type":"Feature","id":91,"geometry":{"type":"MultiLineString","coordinates":[[[-157.71423,21.282388],[-157.713825,21.282244]]]},"properties":{"slr_ft":0.5}},{"type":"Feature","id":92,"geometry":{"type":"MultiLineString","coordinates":[[[-157.67436,21.285621],[-157.674249,21.285678]]]},"properties":{"slr_ft":0.5}},{"type":"Feature","id":93,"geometry":{"type":"MultiLineString","coordinates":[[[-157.85779,21.294979],[-157.857757,21.294963]]]},"properties":{"slr_ft":0.5}},{"type":"Feature","id":94,"geometry":{"type":"MultiLineString","coordinates":[[[-157.857757,21.294963],[-157.857585,21.294792],[-157.857229,21.294651]]]},"properties":{"slr_ft":0.5}},{"type":"Feature","id":95,"geometry":{"type":"MultiLineString","coordinates":[[[-157.834678,21.290319],[-157.834639,21.290305]]]},"properties":{"slr_ft":0.5}},{"type":"Feature","id":96,"geometry":{"type":"MultiLineString","coordinates":[[[-157.834639,21.290305],[-157.834592,21.290288]]]},"properties":{"slr_ft":0.5}},{"type":"Feature","id":97,"geometry":{"type":"MultiLineString","coordinates":[[[-158.103137,21.598033],[-158.103206,21.597931],[-158.103075,21.59614]],[[-158.103047,21.595756],[-158.103053,21.595626]],[[-158.103114,21.5953],[-158.103244,21.594609]]]},"properties":{"slr_ft":0.5}},{"type":"Feature","id":98,"geometry":{"type":"MultiLineString","coordinates":[[[-158.23548,21.541084],[-158.235477,21.541082]],[[-158.235811,21.541293],[-158.235801,21.541287]],[[-158.239192,21.544862],[-158.239183,21.544855]],[[-158.240257,21.547116],[-158.240131,21.545981]],[[-158.240411,21.547625],[-158.240402,21.547613]],[[-158.240586,21.547818],[-158.240485,21.547718]],[[-158.242534,21.549776],[-158.240741,21.547974]],[[-158.243494,21.55074],[-158.24305,21.550294]],[[-158.243973,21.551184],[-158.243965,21.551176]],[[-158.244036,21.551241],[-158.244019,21.551225]],[[-158.244086,21.551287],[-158.244067,21.551269]],[[-158.244136,21.551332],[-158.244115,21.551313]],[[-158.244356,21.551468],[-158.244163,21.551357]],[[-158.244395,21.551488],[-158.244356,21.551468]],[[-158.246707,21.553622],[-158.245518,21.552491]]]},"properties":{"slr_ft":0.5}}]}