{"type":"FeatureCollection","features":[{"type":"Feature","geometry":{"type":"MultiLineString","coordinates":[[[-157.911375,21.506087],[-157.910477,21.506477],[-157.909145,21.507395],[-157.908297,21.509625],[-157.908229,21.511875],[-157.908967,21.514125],[-157.909861,21.515639],[-157.910923,21.516827],[-157.912268,21.517732],[-157.913625,21.518389],[-157.915875,21.518856],[-157.917829,21.518329],[-157.918125,21.518174],[-157.918957,21.517207],[-157.91938,21.516375],[-157.919529,21.515529],[-157.919657,21.514125],[-157.919138,21.511875],[-157.918821,21.511179],[-157.917996,21.509754],[-157.916951,21.508549],[-157.915875,21.507566],[-157.913625,21.506285],[-157.911375,21.506087]]]},"properties":{"contour":260}},{"type":"Feature","geometry":{"type":"MultiLineString","coordinates":[[[-157.906875,21.498081],[-157.904507,21.500507],[-157.903253,21.503753],[-157.901893,21.506893],[-157.901075,21.508325],[-157.900011,21.509625],[-157.899392,21.511142],[-157.899186,21.511875],[-157.899569,21.512431],[-157.900125,21.513695],[-157.90046,21.514125],[-157.901443,21.515057],[-157.902375,21.516438],[-157.903443,21.517557],[-157.904625,21.519066],[-157.906875,21.521508],[-157.909125,21.523115],[-157.911375,21.52443],[-157.913625,21.52564],[-157.915875,21.526644],[-157.918125,21.527214],[-157.919826,21.527076],[-157.920375,21.526971],[-157.921964,21.525375],[-157.922625,21.524521],[-157.92328,21.523125],[-157.924136,21.520875],[-157.924664,21.518414],[-157.924819,21.516375],[-157.924644,21.514125],[-157.924318,21.512432],[-157.923493,21.509625],[-157.922536,21.507464],[-157.921765,21.505985],[-157.920375,21.503644],[-157.918125,21.500863],[-157.915875,21.498781],[-157.913625,21.497299],[-157.911375,21.49657],[-157.909125,21.49679],[-157.906875,21.498081]]]},"properties":{"contour":240}},{"type":"Feature","geometry":{"type":"MultiLineString","coordinates":[[[-158.138625,21.493546],[-158.138017,21.493875],[-158.137059,21.494559],[-158.136375,21.495102],[-158.135335,21.496125],[-158.133851,21.498101],[-158.133106,21.499606],[-158.132679,21.500625],[-158.132266,21.502875],[-158.132175,21.505125],[-158.132473,21.507375],[-158.13352,21.509625],[-158.134583,21.511417],[-158.135535,21.512715],[-158.136739,21.514125],[-158.138797,21.516203],[-158.140875,21.517994],[-158.142537,21.519213],[-158.145045,21.520875],[-158.147625,21.522309],[-158.152125,21.524341],[-158.154375,21.525195],[-158.158875,21.526647],[-158.161125,21.527166],[-158.163375,21.527556],[-158.165625,21.527835],[-158.170125,21.528034],[-158.172375,21.528025],[-158.174639,21.527639],[-158.176875,21.526951],[-158.179125,21.526006],[-158.180011,21.525375],[-158.180732,21.524732],[-158.182204,21.523125],[-158.183665,21.520875],[-158.184243,21.518625],[-158.184592,21.516375],[-158.18466,21.514125],[-158.184503,21.511875],[-158.184076,21.509625],[-158.18351,21.507375],[-158.182236,21.505125],[-158.181375,21.503898],[-158.180534,21.502875],[-158.179125,21.501558],[-158.177665,21.500625],[-158.172375,21.498139],[-158.167875,21.496466],[-158.165625,21.495715],[-158.15887,21.49387],[-158.152125,21.492616],[-158.149875,21.492352],[-158.145375,21.492017],[-158.143125,21.492324],[-158.141852,21.492602],[-158.140875,21.49283],[-158.138625,21.493546]]]},"properties":{"contour":65}},{"type":"Feature","geometry":{"type":"MultiLineString","coordinates":[[[-157.931625,21.555712],[-157.93125,21.5565],[-157.931209,21.557291],[-157.930957,21.558457],[-157.930956,21.559125],[-157.931051,21.559699],[-157.930968,21.560718],[-157.931038,21.561375],[-157.931245,21.561755],[-157.931505,21.563505],[-157.931625,21.563721],[-157.931754,21.563754],[-157.933608,21.563892],[-157.933875,21.564008],[-157.934257,21.563625],[-157.93486,21.561375],[-157.934394,21.559125],[-157.933875,21.557396],[-157.933425,21.557325],[-157.93204,21.55646],[-157.931625,21.555712]]]},"properties":{"contour":220}},{"type":"Feature","geometry":{"type":"MultiLineString","coordinates":[[[-158.131875,21.478047],[-158.129828,21.478328],[-158.127947,21.478697],[-158.125125,21.479471],[-158.122908,21.480408],[-158.121414,21.481164],[-158.119989,21.481989],[-158.118631,21.482881],[-158.11733,21.48383],[-158.116132,21.484882],[-158.115042,21.486042],[-158.114218,21.487125],[-158.112914,21.489375],[-158.112042,21.491625],[-158.111593,21.493875],[-158.111422,21.495922],[-158.111372,21.498375],[-158.111443,21.500625],[-158.111639,21.502889],[-158.111901,21.505125],[-158.112375,21.507375],[-158.114247,21.511875],[-158.115619,21.514631],[-158.11668,21.516375],[-158.118266,21.518625],[-158.12017,21.520875],[-158.121609,21.522141],[-158.124101,21.524149],[-158.128033,21.526967],[-158.132601,21.529875],[-158.137875,21.532875],[-158.146641,21.537609],[-158.149875,21.539186],[-158.152798,21.540452],[-158.156051,21.541699],[-158.158875,21.542682],[-158.161108,21.543358],[-158.165625,21.544558],[-158.172375,21.545803],[-158.179125,21.546759],[-158.185875,21.547414],[-158.192299,21.547549],[-158.194477,21.547477],[-158.196524,21.547274],[-158.199375,21.546658],[-158.200063,21.546313],[-158.201391,21.545391],[-158.202321,21.544071],[-158.202669,21.543375],[-158.203316,21.541125],[-158.203577,21.538577],[-158.203647,21.536397],[-158.203623,21.534375],[-158.202829,21.528671],[-158.202488,21.525375],[-158.20231,21.518625],[-158.202177,21.516375],[-158.201908,21.514125],[-158.201495,21.511875],[-158.200879,21.509625],[-158.200099,21.507375],[-158.198944,21.505125],[-158.19749,21.502875],[-158.195807,21.500625],[-158.193749,21.498375],[-158.192047,21.496703],[-158.189681,21.494569],[-158.188443,21.493557],[-158.185875,21.491758],[-158.182878,21.490123],[-158.179125,21.488294],[-158.176875,21.487386],[-158.173399,21.486101],[-158.168319,21.484431],[-158.163375,21.48298],[-158.158875,21.481776],[-158.152125,21.480266],[-158.145375,21.478925],[-158.14112,21.47837],[-158.138623,21.478123],[-158.136263,21.478013],[-158.131875,21.478047]]]},"properties":{"contour":50}},{"type":"Feature","geometry":{"type":"MultiLineString","coordinates":[[[-157.900125,21.475217],[-157.899798,21.475548],[-157.899624,21.475875],[-157.899535,21.478125],[-157.900125,21.480421],[-157.90085,21.482625],[-157.901268,21.484875],[-157.901461,21.487125],[-157.901463,21.488037],[-157.901455,21.489375],[-157.901272,21.491625],[-157.900942,21.493875],[-157.900442,21.496125],[-157.899834,21.498375],[-157.898492,21.502875],[-157.897875,21.504348],[-157.896474,21.508224],[-157.896148,21.509625],[-157.896229,21.511875],[-157.896633,21.513117],[-157.897301,21.514699],[-157.897875,21.515753],[-157.900125,21.519346],[-157.902375,21.522377],[-157.903733,21.524017],[-157.906875,21.527454],[-157.913625,21.534208],[-157.914909,21.535341],[-157.915875,21.53631],[-157.917267,21.537483],[-157.918125,21.538384],[-157.918807,21.538875],[-157.919632,21.539618],[-157.920375,21.540464],[-157.920852,21.540648],[-157.921636,21.541125],[-157.922229,21.541521],[-157.922625,21.541922],[-157.923835,21.542165],[-157.924875,21.542602],[-157.9256,21.54185],[-157.926292,21.540292],[-157.926389,21.539611],[-157.926765,21.538515],[-157.927456,21.534706],[-157.927828,21.532125],[-157.928298,21.529875],[-157.930035,21.523785],[-157.930649,21.520875],[-157.930832,21.518625],[-157.930827,21.517827],[-157.930807,21.516375],[-157.930591,21.514125],[-157.930207,21.511875],[-157.929629,21.509625],[-157.928918,21.507375],[-157.928038,21.505125],[-157.927125,21.503181],[-157.924677,21.498573],[-157.920375,21.492094],[-157.918125,21.489352],[-157.915875,21.486821],[-157.911375,21.482014],[-157.906875,21.477671],[-157.903904,21.475875],[-157.902375,21.475254],[-157.900125,21.475217]]]},"properties":{"contour":220}},{"type":"Feature","geometry":{"type":"MultiLineString","coordinates":[[[-158.219625,21.472745],[-158.215125,21.47154],[-158.212875,21.471055],[-158.208375,21.469697],[-158.199629,21.466875],[-158.193974,21.464625],[-158.186654,21.461596],[-158.176863,21.457875],[-158.174625,21.456884],[-158.170125,21.455044],[-158.165511,21.453375],[-158.160443,21.451125],[-158.158875,21.450307],[-158.153967,21.446625],[-158.151631,21.444375],[-158.149875,21.442191],[-158.148302,21.439875],[-158.146953,21.437625],[-158.145375,21.434049],[-158.145104,21.433125],[-158.144796,21.430875],[-158.144761,21.428625],[-158.144876,21.426375],[-158.145103,21.424125],[-158.145375,21.422449],[-158.14609,21.419625],[-158.14804,21.412875],[-158.14969,21.406125],[-158.149912,21.403875],[-158.149305,21.399375],[-158.148916,21.397125],[-158.148292,21.394208],[-158.147918,21.392625],[-158.147237,21.390375],[-158.145375,21.386129],[-158.143568,21.380932],[-158.142014,21.376875],[-158.140271,21.372979],[-158.13886,21.370125],[-158.138854,21.369896],[-158.138625,21.36969],[-158.137718,21.367875],[-158.137678,21.366928]]]},"properties":{"contour":25}},{"type":"Feature","geometry":{"type":"MultiLineString","coordinates":[[[-157.959276,21.372375],[-157.957073,21.370125],[-157.953146,21.365625],[-157.950533,21.362467]]]},"properties":{"contour":25}},{"type":"Feature","geometry":{"type":"MultiLineString","coordinates":[[[-157.897875,21.46685],[-157.896596,21.467846],[-157.895625,21.469046],[-157.894983,21.470733],[-157.894503,21.473625],[-157.8945,21.475875],[-157.894688,21.478125],[-157.895283,21.482625],[-157.895757,21.487125],[-157.89595,21.4913],[-157.895901,21.493599],[-157.895504,21.498375],[-157.895181,21.500625],[-157.894757,21.502875],[-157.893707,21.507375],[-157.893515,21.509625],[-157.893679,21.511875],[-157.894013,21.513487],[-157.894541,21.515209],[-157.895162,21.516838],[-157.895868,21.518382],[-157.897433,21.521317],[-157.899995,21.525505],[-157.902375,21.52894],[-157.908052,21.536625],[-157.910236,21.540014],[-157.91212,21.543375],[-157.914948,21.548801],[-157.920375,21.559707],[-157.922701,21.563625],[-157.924241,21.565875],[-157.925984,21.568125],[-157.927125,21.569441],[-157.929375,21.571806],[-157.931625,21.573901],[-157.933875,21.575768],[-157.936125,21.577115],[-157.937717,21.577783],[-157.938375,21.578139],[-157.939292,21.578458],[-157.940625,21.579098],[-157.942875,21.57968],[-157.945125,21.579684],[-157.947143,21.579143],[-157.947375,21.579026],[-157.948158,21.577908],[-157.948906,21.576406],[-157.949435,21.574875],[-157.949629,21.572629],[-157.94963,21.57038],[-157.949432,21.567932],[-157.948672,21.563625],[-157.948075,21.561375],[-157.947375,21.559647],[-157.94292,21.550125],[-157.941833,21.547875],[-157.939783,21.544217],[-157.938236,21.541264],[-157.935355,21.535145],[-157.935088,21.534375],[-157.934768,21.532125],[-157.935321,21.529875],[-157.937,21.525375],[-157.937443,21.523125],[-157.937536,21.522286],[-157.937667,21.520875],[-157.937687,21.518625],[-157.937559,21.516375],[-157.937234,21.514125],[-157.936764,21.511875],[-157.935593,21.507375],[-157.93482,21.505125],[-157.93392,21.50283],[-157.932478,21.499772],[-157.930521,21.496125],[-157.927531,21.491219],[-157.925711,21.488539],[-157.922914,21.484875],[-157.920375,21.481834],[-157.916945,21.478125],[-157.913625,21.474776],[-157.911375,21.47259],[-157.909125,21.470553],[-157.906875,21.468768],[-157.904625,21.467622],[-157.902375,21.466843],[-157.900125,21.466446],[-157.897875,21.46685]]]},"properties":{"contour":200}},{"type":"Feature","geometry":{"type":"MultiLineString","coordinates":[[[-157.893375,21.450473],[-157.892216,21.451125],[-157.891579,21.451579],[-157.891125,21.452],[-157.890519,21.452769],[-157.890155,21.453375],[-157.889774,21.454274],[-157.889214,21.455964],[-157.888875,21.457414],[-157.888791,21.457875],[-157.888713,21.459963],[-157.889093,21.464843],[-157.889733,21.470517],[-157.891711,21.491039],[-157.892037,21.496125],[-157.892097,21.498375],[-157.89202,21.500625],[-157.891741,21.502875],[-157.890836,21.507375],[-157.890609,21.509625],[-157.890673,21.511875],[-157.89102,21.514125],[-157.89146,21.51604],[-157.892291,21.518625],[-157.893248,21.521002],[-157.894713,21.524037],[-157.897106,21.528394],[-157.903497,21.538875],[-157.906083,21.543375],[-157.911674,21.554625],[-157.913625,21.558286],[-157.916613,21.563625],[-157.918125,21.566146],[-157.920375,21.569528],[-157.922625,21.572416],[-157.92474,21.574875],[-157.929375,21.579678],[-157.931625,21.581765],[-157.933875,21.583704],[-157.938375,21.586763],[-157.941036,21.588375],[-157.942875,21.589365],[-157.945125,21.590452],[-157.947375,21.591357],[-157.949625,21.59174],[-157.950714,21.591715],[-157.952822,21.591572],[-157.954125,21.591366],[-157.95467,21.59117],[-157.956165,21.590415],[-157.957397,21.589397],[-157.958355,21.588375],[-157.959087,21.586587],[-157.95968,21.583875],[-157.959906,21.581625],[-157.959313,21.574875],[-157.957804,21.568125],[-157.955908,21.561375],[-157.953339,21.554625],[-157.950234,21.547266],[-157.947435,21.541125],[-157.946517,21.538875],[-157.945794,21.536625],[-157.945394,21.534106],[-157.945399,21.525649],[-157.945268,21.523268],[-157.94506,21.52081],[-157.944508,21.516375],[-157.943679,21.511875],[-157.943101,21.509625],[-157.941563,21.505125],[-157.939846,21.500625],[-157.938842,21.498375],[-157.937147,21.495103],[-157.933709,21.489375],[-157.932237,21.487125],[-157.928058,21.481692],[-157.922772,21.475728],[-157.909125,21.461452],[-157.906875,21.459189],[-157.904625,21.457499],[-157.897875,21.452909],[-157.895625,21.451485],[-157.893375,21.450473]]]},"properties":{"contour":180}},{"type":"Feature","geometry":{"type":"MultiLineString","coordinates":[[[-157.731766,21.444375],[-157.734207,21.446043],[-157.734946,21.446625],[-157.735875,21.447517],[-157.736878,21.448875],[-157.737208,21.449792],[-157.737838,21.451125],[-157.738702,21.453375],[-157.737273,21.457875]]]},"properties":{"contour":35}},{"type":"Feature","geometry":{"type":"MultiLineString","coordinates":[[[-157.879875,21.437398],[-157.87914,21.43914],[-157.878954,21.439875],[-157.878742,21.442125],[-157.878709,21.444375],[-157.878877,21.446625],[-157.879875,21.452853],[-157.881152,21.457875],[-157.881768,21.460125],[-157.882503,21.462375],[-157.884873,21.468627],[-157.885503,21.471375],[-157.885995,21.478125],[-157.886739,21.484875],[-157.887441,21.489375],[-157.889079,21.498375],[-157.889235,21.500265],[-157.889201,21.500951],[-157.888829,21.502829],[-157.887989,21.505125],[-157.88744,21.507375],[-157.887129,21.509625],[-157.887087,21.511875],[-157.887302,21.514125],[-157.887932,21.517318],[-157.888963,21.520787],[-157.890254,21.523996],[-157.891703,21.527047],[-157.900608,21.543375],[-157.908886,21.559364],[-157.913625,21.567646],[-157.915875,21.571221],[-157.918465,21.574875],[-157.920375,21.577274],[-157.922625,21.579852],[-157.924875,21.582289],[-157.929375,21.586769],[-157.933875,21.590792],[-157.936125,21.592495],[-157.940625,21.595657],[-157.945125,21.598528],[-157.947375,21.599848],[-157.949625,21.600868],[-157.951875,21.601682],[-157.954125,21.602446],[-157.956375,21.602986],[-157.958625,21.603457],[-157.960875,21.603697],[-157.963125,21.60323],[-157.964019,21.602769],[-157.96539,21.60189],[-157.96647,21.60072],[-157.967293,21.599625],[-157.968143,21.597893],[-157.968993,21.595125],[-157.969227,21.592227],[-157.969251,21.588375],[-157.968349,21.581625],[-157.966859,21.574875],[-157.965027,21.568125],[-157.962897,21.561375],[-157.96059,21.554625],[-157.957387,21.545625],[-157.955963,21.541125],[-157.955341,21.538875],[-157.954833,21.536625],[-157.954045,21.532125],[-157.95181,21.516375],[-157.950706,21.511875],[-157.949436,21.507375],[-157.948371,21.504129],[-157.94598,21.498375],[-157.944952,21.496299],[-157.941667,21.490583],[-157.939517,21.487125],[-157.937965,21.484875],[-157.934446,21.480375],[-157.931625,21.476976],[-157.928639,21.473625],[-157.920276,21.464625],[-157.910654,21.453375],[-157.906875,21.449372],[-157.901,21.444375],[-157.895625,21.440143],[-157.893375,21.43865],[-157.888993,21.437743],[-157.884375,21.437019],[-157.882125,21.436932],[-157.881491,21.436991],[-157.879875,21.437398]]]},"properties":{"contour":160}},{"type":"Feature","geometry":{"type":"MultiLineString","coordinates":[[[-157.866375,21.417369],[-157.865204,21.418454],[-157.864362,21.419625],[-157.864125,21.420173],[-157.863742,21.421492],[-157.863542,21.423542],[-157.863767,21.426375],[-157.864327,21.428625],[-157.865167,21.430875],[-157.867665,21.436335],[-157.86898,21.43952],[-157.870211,21.442789],[-157.872421,21.449579],[-157.8756,21.460125],[-157.876699,21.463301],[-157.878952,21.469125],[-157.879586,21.471664],[-157.880298,21.475452],[-157.881504,21.482625],[-157.881963,21.484875],[-157.882954,21.489375],[-157.884375,21.494768],[-157.884822,21.496572],[-157.885021,21.497729],[-157.885228,21.498375],[-157.885091,21.500625],[-157.884813,21.501063],[-157.884179,21.502679],[-157.883638,21.504388],[-157.883045,21.507375],[-157.882809,21.509625],[-157.882792,21.511875],[-157.882984,21.514125],[-157.883327,21.516375],[-157.883926,21.519074],[-157.88441,21.520875],[-157.885148,21.523125],[-157.886207,21.525793],[-157.887632,21.528868],[-157.890484,21.534375],[-157.893375,21.539541],[-157.895414,21.543375],[-157.903939,21.559811],[-157.907385,21.565875],[-157.911451,21.572625],[-157.913205,21.575295],[-157.915064,21.577936],[-157.918005,21.581745],[-157.920069,21.584181],[-157.922205,21.586545],[-157.927125,21.59168],[-157.931625,21.595833],[-157.933875,21.597781],[-157.936125,21.59957],[-157.940625,21.60291],[-157.942875,21.604479],[-157.947375,21.60739],[-157.949625,21.608646],[-157.954125,21.610978],[-157.958625,21.613025],[-157.960875,21.613936],[-157.963125,21.614616],[-157.967625,21.615491],[-157.970162,21.615662],[-157.972202,21.615452],[-157.973898,21.614898],[-157.974375,21.614669],[-157.975175,21.613925],[-157.976208,21.612708],[-157.976625,21.612063],[-157.977216,21.610875],[-157.978081,21.608625],[-157.978593,21.606093],[-157.978869,21.604119],[-157.978997,21.601875],[-157.97889,21.59964],[-157.978536,21.595125],[-157.977733,21.590625],[-157.977297,21.588375],[-157.975646,21.581625],[-157.964294,21.543375],[-157.963701,21.541125],[-157.962123,21.534375],[-157.961402,21.529875],[-157.960513,21.525375],[-157.959043,21.516375],[-157.958126,21.511875],[-157.957544,21.509625],[-157.955018,21.501982],[-157.953696,21.498804],[-157.952386,21.496125],[-157.951123,21.493875],[-157.948398,21.489375],[-157.945515,21.484875],[-157.942539,21.480711],[-157.939538,21.476962],[-157.936411,21.473338],[-157.924379,21.460125],[-157.920567,21.455625],[-157.918528,21.452972],[-157.916506,21.450493],[-157.913161,21.446625],[-157.910142,21.443358],[-157.906875,21.440136],[-157.903795,21.437625],[-157.897869,21.433125],[-157.893375,21.429601],[-157.889859,21.427641],[-157.887072,21.425928],[-157.884363,21.424137],[-157.879875,21.420933],[-157.870875,21.418049],[-157.868625,21.417582],[-157.866375,21.417369]]]},"properties":{"contour":140}},{"type":"Feature","geometry":{"type":"MultiLineString","coordinates":[[[-157.837125,21.376816],[-157.835675,21.377675],[-157.834497,21.378747],[-157.834267,21.379125],[-157.833835,21.380335],[-157.833597,21.381375],[-157.833484,21.383625],[-157.833676,21.385875],[-157.834518,21.390375],[-157.835291,21.392625],[-157.836296,21.394875],[-157.837125,21.396457],[-157.840844,21.402406],[-157.842406,21.405344],[-157.845989,21.412875],[-157.848277,21.417375],[-157.849512,21.419625],[-157.853467,21.425783],[-157.856026,21.429974],[-157.859625,21.435946],[-157.862656,21.441344],[-157.86487,21.44588],[-157.866116,21.448875],[-157.866903,21.451125],[-157.868289,21.455625],[-157.86954,21.460125],[-157.872846,21.471375],[-157.874809,21.478691],[-157.875375,21.480866],[-157.877819,21.491625],[-157.878152,21.493875],[-157.878305,21.496125],[-157.878251,21.498375],[-157.877774,21.503024],[-157.877514,21.507264],[-157.877529,21.509625],[-157.877802,21.513948],[-157.87811,21.516375],[-157.878566,21.518625],[-157.879319,21.521431],[-157.880412,21.524838],[-157.881527,21.527625],[-157.883171,21.531079],[-157.888714,21.541125],[-157.897256,21.557494],[-157.901891,21.565875],[-157.904644,21.570356],[-157.91083,21.57992],[-157.914593,21.585157],[-157.916604,21.587646],[-157.918677,21.590073],[-157.921886,21.593614],[-157.926311,21.598189],[-157.928612,21.600388],[-157.930984,21.602516],[-157.936125,21.606742],[-157.942875,21.611851],[-157.945125,21.613428],[-157.949625,21.616292],[-157.954125,21.618963],[-157.960875,21.622727],[-157.967625,21.626064],[-157.974375,21.629064],[-157.976625,21.629712],[-157.978875,21.630096],[-157.981125,21.629895],[-157.981907,21.629657],[-157.983375,21.629038],[-157.984635,21.627885],[-157.985693,21.626693],[-157.987178,21.624375],[-157.988139,21.622125],[-157.988649,21.619875],[-157.989,21.617625],[-157.989233,21.615375],[-157.989331,21.610875],[-157.989293,21.608625],[-157.988576,21.601875],[-157.987338,21.595125],[-157.986103,21.590625],[-157.984023,21.583875],[-157.980875,21.574875],[-157.977919,21.565875],[-157.976613,21.561375],[-157.974375,21.552824],[-157.97102,21.538875],[-157.969875,21.533741],[-157.9666,21.516375],[-157.96514,21.50761],[-157.964583,21.505125],[-157.96375,21.50225],[-157.962538,21.498962],[-157.961196,21.496125],[-157.959997,21.493875],[-157.958613,21.491625],[-157.957086,21.489375],[-157.952168,21.482625],[-157.948136,21.477364],[-157.944145,21.472355],[-157.938925,21.466325],[-157.933875,21.460864],[-157.924309,21.449441],[-157.918069,21.442181],[-157.914849,21.438651],[-157.912596,21.436404],[-157.907835,21.432165],[-157.900125,21.425704],[-157.893375,21.419773],[-157.890388,21.417375],[-157.885966,21.413534],[-157.879875,21.408066],[-157.877535,21.406215],[-157.873938,21.403062],[-157.869267,21.398733],[-157.866375,21.395862],[-157.863302,21.393448],[-157.860924,21.391326],[-157.857637,21.388125],[-157.852875,21.382968],[-157.848877,21.380873],[-157.846125,21.379271],[-157.842892,21.377858],[-157.841625,21.37716],[-157.839375,21.376339],[-157.837125,21.376816]]]},"properties":{"contour":120}},{"type":"Feature","geometry":{"type":"MultiLineString","coordinates":[[[-157.965375,21.377493],[-157.96773,21.379125],[-157.970413,21.380836],[-157.974375,21.383712],[-157.983375,21.38974],[-157.987875,21.392638],[-157.990125,21.393864],[-157.992375,21.394988],[-157.996875,21.397011],[-157.999125,21.3979],[-158.001375,21.398679],[-158.003625,21.399187],[-158.008125,21.399429],[-158.012625,21.398906],[-158.014875,21.398563],[-158.017125,21.398122],[-158.026125,21.395712],[-158.028375,21.394969],[-158.030625,21.393827],[-158.032875,21.3924],[-158.035125,21.390679],[-158.037375,21.388696],[-158.041875,21.384135],[-158.045159,21.380159],[-158.048625,21.376564],[-158.050377,21.374625],[-158.054625,21.369375],[-158.058861,21.364611],[-158.061102,21.362352],[-158.064647,21.359147],[-158.067132,21.357132],[-158.069725,21.355225],[-158.07239,21.353389],[-158.07515,21.35165],[-158.079463,21.349213],[-158.082375,21.347738],[-158.084625,21.346795],[-158.087382,21.345882],[-158.091375,21.344888],[-158.093625,21.344467],[-158.095875,21.344138],[-158.098125,21.343959],[-158.100375,21.343959],[-158.102625,21.344044],[-158.104875,21.344223],[-158.10584,21.34441],[-158.111625,21.345685],[-158.114748,21.346752],[-158.116329,21.347421],[-158.118375,21.348435],[-158.122011,21.350738],[-158.124585,21.352665],[-158.128298,21.355702],[-158.130591,21.357909],[-158.131663,21.359087],[-158.13271,21.36029],[-158.134125,21.362118],[-158.134915,21.362584],[-158.135032,21.363375],[-158.136375,21.36549]]]},"properties":{"contour":25}},{"type":"Feature","geometry":{"type":"MultiLineString","coordinates":[[[-157.796625,21.329064],[-157.796145,21.329145],[-157.794588,21.329625],[-157.794472,21.329722],[-157.793701,21.331201],[-157.793579,21.331875],[-157.79401,21.334125],[-157.795053,21.336375],[-157.795748,21.337252],[-157.796989,21.338625],[-157.798026,21.339474],[-157.799354,21.340396],[-157.801125,21.341278],[-157.802536,21.341714],[-157.803375,21.341932],[-157.805625,21.342058],[-157.807875,21.341621],[-157.810125,21.340723],[-157.812375,21.339249],[-157.812649,21.338899],[-157.813338,21.337338],[-157.813547,21.336375],[-157.812866,21.334125],[-157.812688,21.333812],[-157.811639,21.332611],[-157.810312,21.331688],[-157.807875,21.330597],[-157.807131,21.330369],[-157.805265,21.329625],[-157.803375,21.328986],[-157.801125,21.328477],[-157.798875,21.328536],[-157.797943,21.328693],[-157.796625,21.329064]]]},"properties":{"contour":140}},{"type":"Feature","geometry":{"type":"MultiLineString","coordinates":[[[-157.948699,21.359801],[-157.947375,21.358184],[-157.944948,21.354552],[-157.943967,21.353283],[-157.940822,21.349678],[-157.939734,21.348516],[-157.937447,21.346303],[-157.934984,21.344266],[-157.929907,21.340343],[-157.925954,21.337546],[-157.920375,21.33387],[-157.914618,21.329625],[-157.912871,21.328129],[-157.909125,21.325118],[-157.906631,21.322875],[-157.904137,21.321113]]]},"properties":{"contour":25}},{"type":"Feature","geometry":{"type":"MultiLineString","coordinates":[[[-157.780875,21.322817],[-157.779018,21.323268],[-157.777316,21.323816],[-157.775741,21.324491],[-157.774971,21.325125],[-157.774847,21.325847],[-157.774911,21.326589],[-157.774825,21.327375],[-157.7753,21.329625],[-157.776219,21.331875],[-157.777346,21.334125],[-157.778636,21.336375],[-157.780266,21.338625],[-157.782034,21.340875],[-157.784017,21.343125],[-157.785375,21.344527],[-157.787625,21.346779],[-157.788569,21.347625],[-157.789875,21.348725],[-157.792125,21.350426],[-157.794375,21.351736],[-157.796625,21.352862],[-157.798875,21.353814],[-157.801125,21.354573],[-157.803375,21.355114],[-157.805625,21.355433],[-157.807875,21.355354],[-157.808709,21.355209],[-157.810467,21.354717],[-157.811883,21.353883],[-157.812375,21.353434],[-157.812922,21.352672],[-157.813592,21.351092],[-157.813905,21.349875],[-157.814625,21.348944],[-157.815407,21.348407],[-157.816604,21.347354],[-157.81761,21.34611],[-157.818405,21.344655],[-157.819039,21.343039],[-157.819421,21.340875],[-157.819397,21.338625],[-157.819028,21.336375],[-157.818388,21.334125],[-157.817358,21.331392],[-157.816835,21.329625],[-157.815536,21.328714],[-157.814625,21.327916],[-157.81426,21.32774],[-157.812375,21.327231],[-157.810125,21.32641],[-157.805625,21.324612],[-157.803375,21.32381],[-157.798875,21.322537],[-157.796625,21.322084],[-157.794375,21.321747],[-157.792125,21.321519],[-157.789875,21.321474],[-157.787625,21.321613],[-157.785375,21.321923],[-157.78266,21.32241],[-157.780875,21.322817]]]},"properties":{"contour":120}},{"type":"Feature","geometry":{"type":"MultiLineString","coordinates":[[[-157.767375,21.315909],[-157.765931,21.316931],[-157.764768,21.318018],[-157.76444,21.318375],[-157.763815,21.319315],[-157.763036,21.320625],[-157.762354,21.322875],[-157.762136,21.325125],[-157.762458,21.327375],[-157.763041,21.329625],[-157.763984,21.331875],[-157.765173,21.334125],[-157.76663,21.336375],[-157.768279,21.338625],[-157.770078,21.340875],[-157.773812,21.345375],[-157.777696,21.349875],[-157.780322,21.352678],[-157.783125,21.355319],[-157.785375,21.357253],[-157.787625,21.359045],[-157.792125,21.362182],[-157.796625,21.364965],[-157.802745,21.368506],[-157.80545,21.3703],[-157.808005,21.372245],[-157.809224,21.373276],[-157.810402,21.374348],[-157.812609,21.376641],[-157.814512,21.379238],[-157.817156,21.383344],[-157.818667,21.385875],[-157.823535,21.394965],[-157.828468,21.403875],[-157.830807,21.408375],[-157.833335,21.412875],[-157.834706,21.415125],[-157.837847,21.419625],[-157.843358,21.426892],[-157.849328,21.434422],[-157.851403,21.436847],[-157.852875,21.438409],[-157.854002,21.439875],[-157.857358,21.444375],[-157.858631,21.446625],[-157.859395,21.448875],[-157.860309,21.452691],[-157.861317,21.456183],[-157.86254,21.460125],[-157.864125,21.464765],[-157.866375,21.47231],[-157.868353,21.480375],[-157.869905,21.487125],[-157.870692,21.491625],[-157.870916,21.493875],[-157.871054,21.498196],[-157.870977,21.507375],[-157.871132,21.511618],[-157.87132,21.514125],[-157.871777,21.517723],[-157.87237,21.520875],[-157.87367,21.52483],[-157.874901,21.528099],[-157.876331,21.531169],[-157.878812,21.535438],[-157.882125,21.540473],[-157.885176,21.547074],[-157.888308,21.552942],[-157.891969,21.559125],[-157.893375,21.561347],[-157.896643,21.567107],[-157.89917,21.57133],[-157.903543,21.578207],[-157.90808,21.58492],[-157.909926,21.587574],[-157.912787,21.591463],[-157.916882,21.596368],[-157.923403,21.603347],[-157.926771,21.606729],[-157.931625,21.611049],[-157.935231,21.614019],[-157.939002,21.616998],[-157.944229,21.620771],[-157.951875,21.625881],[-157.960875,21.631569],[-157.967625,21.635491],[-157.969875,21.636745],[-157.974375,21.639012],[-157.976625,21.639896],[-157.978875,21.640649],[-157.981125,21.641176],[-157.983375,21.641576],[-157.985625,21.641645],[-157.987875,21.641547],[-157.988999,21.641251],[-157.990125,21.640926],[-157.990687,21.640687],[-157.992375,21.639807],[-157.993482,21.638982],[-157.994699,21.637949],[-157.995732,21.636732],[-157.996693,21.635443],[-157.997505,21.634005],[-157.998209,21.632459],[-157.99883,21.63083],[-157.999446,21.628875],[-158.00008,21.62533],[-158.000403,21.622125],[-158.000316,21.615375],[-158.000213,21.613125],[-157.999897,21.608625],[-157.9996,21.606375],[-157.998931,21.601875],[-157.997997,21.597375],[-157.99747,21.595125],[-157.99604,21.590625],[-157.995229,21.588375],[-157.993078,21.583172],[-157.991685,21.580065],[-157.989194,21.574875],[-157.987875,21.571879],[-157.98656,21.568125],[-157.984596,21.559125],[-157.97853,21.534375],[-157.975634,21.520875],[-157.974844,21.516375],[-157.97475,21.5145],[-157.975071,21.507375],[-157.975019,21.505125],[-157.974806,21.502875],[-157.974414,21.500625],[-157.973811,21.498375],[-157.972921,21.496125],[-157.971646,21.493875],[-157.969993,21.491625],[-157.965786,21.486714],[-157.960875,21.481288],[-157.958625,21.478667],[-157.947375,21.465072],[-157.944201,21.461049],[-157.939014,21.454986],[-157.933875,21.449169],[-157.929784,21.443966],[-157.925596,21.439154],[-157.923417,21.436833],[-157.914501,21.427749],[-157.912168,21.425582],[-157.909767,21.423483],[-157.905059,21.419625],[-157.902501,21.417375],[-157.900179,21.415125],[-157.893602,21.408148],[-157.889168,21.403875],[-157.876614,21.391386],[-157.874429,21.38907],[-157.872313,21.386687],[-157.869289,21.382961],[-157.866375,21.379181],[-157.861211,21.373039],[-157.852875,21.362708],[-157.850845,21.361125],[-157.842183,21.356067],[-157.836649,21.352601],[-157.834875,21.351186],[-157.833078,21.349422],[-157.832035,21.348215],[-157.831108,21.346892],[-157.830321,21.345429],[-157.829583,21.343917],[-157.827597,21.338625],[-157.826667,21.336375],[-157.825618,21.334125],[-157.82341,21.32984],[-157.822494,21.328506],[-157.821438,21.327375],[-157.820221,21.326279],[-157.81896,21.32529],[-157.817608,21.324392],[-157.816149,21.323601],[-157.814625,21.322927],[-157.812375,21.32206],[-157.810125,21.321365],[-157.80806,21.320625],[-157.805625,21.31942],[-157.801125,21.317677],[-157.798875,21.316934],[-157.796625,21.316291],[-157.792125,21.315139],[-157.787625,21.314399],[-157.785375,21.314149],[-157.783125,21.31402],[-157.778625,21.313959],[-157.774125,21.31419],[-157.771875,21.314467],[-157.769625,21.314992],[-157.767375,21.315909]]]},"properties":{"contour":100}},{"type":"Feature","geometry":{"type":"MultiLineString","coordinates":[[[-157.771875,21.307044],[-157.769625,21.307314],[-157.76595,21.30795],[-157.762875,21.308707],[-157.760825,21.309375],[-157.759069,21.310069],[-157.755768,21.311625],[-157.752166,21.313875],[-157.749209,21.316125],[-157.748176,21.317176],[-157.747063,21.318375],[-157.745701,21.320625],[-157.745601,21.322875],[-157.746234,21.325125],[-157.749091,21.329625],[-157.752433,21.334125],[-157.757045,21.339955],[-157.761209,21.344791],[-157.763437,21.347063],[-157.767375,21.350755],[-157.77101,21.35524],[-157.773137,21.357613],[-157.775352,21.359898],[-157.779948,21.364302],[-157.783125,21.367584],[-157.785375,21.369751],[-157.787976,21.372024],[-157.796625,21.378482],[-157.798875,21.380341],[-157.802504,21.383625],[-157.80467,21.385875],[-157.806584,21.388125],[-157.808042,21.390208],[-157.812375,21.397695],[-157.816059,21.404691],[-157.818092,21.408375],[-157.820819,21.412875],[-157.822801,21.415949],[-157.824634,21.418616],[-157.829358,21.425142],[-157.830375,21.426434],[-157.834497,21.431253],[-157.839375,21.436774],[-157.846125,21.445543],[-157.846898,21.446625],[-157.848293,21.448875],[-157.85078,21.45322],[-157.852875,21.457628],[-157.855776,21.466875],[-157.859536,21.480375],[-157.861163,21.487125],[-157.862065,21.491625],[-157.862428,21.493875],[-157.862717,21.496125],[-157.863093,21.500625],[-157.863266,21.505125],[-157.863232,21.506482],[-157.862846,21.511875],[-157.862682,21.516375],[-157.862735,21.518625],[-157.862899,21.520875],[-157.863293,21.523125],[-157.863818,21.525375],[-157.864518,21.527625],[-157.865336,21.529875],[-157.867041,21.533709],[-157.867798,21.535202],[-157.869771,21.538875],[-157.871884,21.542366],[-157.874061,21.545625],[-157.877208,21.550125],[-157.879875,21.553686],[-157.887489,21.565011],[-157.893375,21.573529],[-157.895576,21.577125],[-157.898916,21.582834],[-157.90152,21.58698],[-157.905246,21.592254],[-157.906875,21.594309],[-157.910069,21.598681],[-157.912054,21.601196],[-157.914113,21.603637],[-157.917307,21.607193],[-157.920375,21.61031],[-157.921703,21.611797],[-157.923928,21.614072],[-157.928575,21.618425],[-157.931006,21.620494],[-157.933111,21.622125],[-157.937239,21.625511],[-157.939782,21.627468],[-157.943708,21.630292],[-157.954125,21.637004],[-157.964067,21.643683],[-157.966807,21.645443],[-157.971064,21.647936],[-157.974,21.6495],[-157.976625,21.650767],[-157.978875,21.651749],[-157.981125,21.652556],[-157.983375,21.653285],[-157.985625,21.653806],[-157.987875,21.654236],[-157.990125,21.654372],[-157.992375,21.654315],[-157.994625,21.654028],[-157.996875,21.653494],[-157.999125,21.652698],[-158.001375,21.651662],[-158.003625,21.650233],[-158.004935,21.649125],[-158.007039,21.646875],[-158.008731,21.644625],[-158.010082,21.642375],[-158.010941,21.640691],[-158.012237,21.637875],[-158.013049,21.635625],[-158.013788,21.632288],[-158.014303,21.628875],[-158.014749,21.622125],[-158.014543,21.615375],[-158.014139,21.608625],[-158.013556,21.604125],[-158.013102,21.601398],[-158.012196,21.597375],[-158.011565,21.595125],[-158.010812,21.592875],[-158.009927,21.590625],[-158.008698,21.587802],[-158.007287,21.584713],[-158.004664,21.579375],[-158.002655,21.574875],[-157.997188,21.559125],[-157.993128,21.547875],[-157.990125,21.540028],[-157.989761,21.538875],[-157.989293,21.536625],[-157.988635,21.532125],[-157.988377,21.529875],[-157.98811,21.525375],[-157.98806,21.520875],[-157.988178,21.518625],[-157.988763,21.511875],[-157.988839,21.509625],[-157.988796,21.507375],[-157.98859,21.505125],[-157.988214,21.502875],[-157.987648,21.500625],[-157.98687,21.498375],[-157.985897,21.496125],[-157.984661,21.493875],[-157.984154,21.493096],[-157.98225,21.4905],[-157.979152,21.486848],[-157.974375,21.481961],[-157.970349,21.477651],[-157.961672,21.469125],[-157.96021,21.46754],[-157.959466,21.466875],[-157.958625,21.465719],[-157.957394,21.463606],[-157.955618,21.460881],[-157.953728,21.458272],[-157.95174,21.45576],[-157.947375,21.450842],[-157.944437,21.447313],[-157.93921,21.44129],[-157.933875,21.435369],[-157.928731,21.429269],[-157.925505,21.425745],[-157.919413,21.419625],[-157.912172,21.412078],[-157.901991,21.402009],[-157.896179,21.396571],[-157.891125,21.392282],[-157.882125,21.383497],[-157.879875,21.381188],[-157.877625,21.378679],[-157.876127,21.376875],[-157.868936,21.367564],[-157.863733,21.361125],[-157.857375,21.353675],[-157.85661,21.35289],[-157.855125,21.351557],[-157.852994,21.349875],[-157.849047,21.346953],[-157.843875,21.342892],[-157.837535,21.338215],[-157.837125,21.337771],[-157.834875,21.33449],[-157.833188,21.331875],[-157.831515,21.329625],[-157.829716,21.327375],[-157.826797,21.324203],[-157.824431,21.322069],[-157.823158,21.321092],[-157.821375,21.319899],[-157.819125,21.318664],[-157.817379,21.317871],[-157.814625,21.316813],[-157.807875,21.314395],[-157.802705,21.312295],[-157.799442,21.311058],[-157.796054,21.309946],[-157.792589,21.308911],[-157.787625,21.307852],[-157.78323,21.30723],[-157.780875,21.307015],[-157.778625,21.306876],[-157.776375,21.306838],[-157.774125,21.306887],[-157.771875,21.307044]]]},"properties":{"contour":80}},{"type":"Feature","geometry":{"type":"MultiLineString","coordinates":[[[-157.873979,21.560521],[-157.874825,21.561375],[-157.876672,21.563625],[-157.879875,21.567154],[-157.885469,21.574875],[-157.890339,21.582411],[-157.891125,21.583501],[-157.892033,21.585217],[-157.893375,21.587338],[-157.894485,21.589515],[-157.896887,21.593863],[-157.898604,21.596646],[-157.901382,21.600618],[-157.903395,21.603105],[-157.904625,21.60444],[-157.905455,21.605545],[-157.906875,21.607082],[-157.907518,21.607982],[-157.90809,21.608625],[-157.90825,21.6095],[-157.909125,21.609962],[-157.910463,21.611787],[-157.912509,21.614241],[-157.914672,21.616578],[-157.916929,21.618821],[-157.919284,21.620966],[-157.920375,21.621857],[-157.921604,21.623146],[-157.926225,21.627525],[-157.931095,21.631655],[-157.932379,21.632621],[-157.933506,21.633375],[-157.934963,21.634537],[-157.937557,21.636443],[-157.941612,21.639138],[-157.945877,21.641623],[-157.94742,21.642375],[-157.950302,21.643948],[-157.951874,21.644624],[-157.953107,21.645643],[-157.954838,21.646875],[-157.955654,21.647596],[-157.959467,21.650534],[-157.962074,21.652426],[-157.966152,21.655098],[-157.970447,21.657553],[-157.974375,21.659524],[-157.976528,21.660472],[-157.979758,21.661742],[-157.983375,21.663036],[-157.985625,21.663751],[-157.987875,21.664359],[-157.990125,21.664763],[-157.992375,21.665052],[-157.994625,21.665184],[-157.997149,21.665149],[-157.999125,21.665003],[-158.001375,21.664727],[-158.003625,21.664285],[-158.005875,21.66357],[-158.008209,21.662709],[-158.009754,21.662004],[-158.011226,21.661226],[-158.014006,21.659506],[-158.015325,21.658575],[-158.016578,21.657578],[-158.018921,21.655421],[-158.020616,21.653625],[-158.022098,21.651848],[-158.024102,21.649125],[-158.025649,21.646399],[-158.027558,21.642375],[-158.02979,21.63704],[-158.030295,21.635625],[-158.030886,21.633375],[-158.031859,21.628875],[-158.032517,21.624375],[-158.032736,21.622125],[-158.032802,21.619875],[-158.032698,21.615198],[-158.032535,21.613125],[-158.031965,21.608625],[-158.030934,21.604125],[-158.029717,21.599625],[-158.028302,21.595125],[-158.027478,21.592875],[-158.026547,21.590625],[-158.024498,21.586125],[-158.019127,21.574875],[-158.01623,21.568125],[-158.013962,21.562288],[-158.012625,21.559136],[-158.004155,21.541125],[-158.003243,21.538875],[-158.002454,21.536625],[-158.001744,21.534375],[-158.001385,21.532115],[-158.001282,21.529875],[-158.001323,21.525375],[-158.001526,21.520875],[-158.001942,21.516375],[-158.002239,21.511875],[-158.002216,21.509625],[-158.002016,21.507375],[-158.001603,21.505125],[-158.001013,21.502875],[-158.000265,21.500625],[-157.999279,21.498375],[-157.99814,21.496125],[-157.996781,21.493875],[-157.995263,21.491625],[-157.991994,21.487506],[-157.990925,21.486325],[-157.987306,21.482625],[-157.982219,21.477031],[-157.978875,21.473516],[-157.974375,21.468618],[-157.964479,21.456521],[-157.956375,21.446832],[-157.954093,21.444375],[-157.947375,21.438122],[-157.942718,21.433125],[-157.933875,21.423112],[-157.931238,21.420012],[-157.920375,21.408316],[-157.915196,21.402304],[-157.910472,21.397125],[-157.908126,21.394875],[-157.901404,21.389096],[-157.893375,21.382585],[-157.889295,21.379125],[-157.88674,21.376875],[-157.884337,21.374625],[-157.882125,21.372391],[-157.879875,21.369764],[-157.876124,21.364876],[-157.872077,21.359923],[-157.869992,21.357508],[-157.864585,21.351665],[-157.862356,21.349394],[-157.860028,21.347222],[-157.855125,21.343095],[-157.852762,21.340988],[-157.850392,21.338625],[-157.846199,21.334051],[-157.843964,21.331786],[-157.836448,21.325125],[-157.831976,21.321274],[-157.829476,21.319274],[-157.826883,21.317367],[-157.824206,21.315544],[-157.822813,21.314687],[-157.821375,21.313936],[-157.819125,21.312987],[-157.812375,21.310631],[-157.808963,21.309375],[-157.801714,21.306536],[-157.798342,21.305408],[-157.793047,21.303953],[-157.787625,21.30281],[-157.783125,21.301985],[-157.780875,21.301642],[-157.778625,21.301367],[-157.776375,21.301202],[-157.774125,21.301146],[-157.772693,21.301193],[-157.769625,21.301456],[-157.765125,21.302142],[-157.760714,21.302714],[-157.756932,21.303432],[-157.749771,21.305271],[-157.742448,21.307302],[-157.733625,21.309548],[-157.731375,21.310313],[-157.729125,21.311256],[-157.726875,21.312611],[-157.726195,21.313195],[-157.725109,21.314359],[-157.724045,21.316125],[-157.723596,21.318375],[-157.72371,21.320625],[-157.7244,21.322875],[-157.72549,21.325125],[-157.726875,21.327025],[-157.728105,21.328395],[-157.729257,21.329493],[-157.731375,21.331088],[-157.733625,21.33232],[-157.735875,21.33328],[-157.738125,21.333923],[-157.740375,21.334375],[-157.742625,21.335348],[-157.743635,21.336375],[-157.744117,21.337133],[-157.744875,21.338011],[-157.747125,21.341092],[-157.748866,21.343634],[-157.75278,21.34872],[-157.755861,21.352389],[-157.759063,21.355937],[-157.761276,21.358224],[-157.763586,21.360414],[-157.767375,21.36381],[-157.776375,21.372072],[-157.777663,21.373337],[-157.778625,21.374107],[-157.779113,21.374625],[-157.779847,21.375653],[-157.780936,21.376875],[-157.781846,21.378154],[-157.784829,21.381921],[-157.792276,21.390375],[-157.796625,21.395681],[-157.798875,21.398585],[-157.805625,21.40775],[-157.809649,21.413351],[-157.811017,21.415125],[-157.812375,21.416649],[-157.812913,21.417375],[-157.8145,21.419625],[-157.815377,21.421123],[-157.817187,21.423813],[-157.825875,21.435502],[-157.826715,21.436785],[-157.828613,21.439387],[-157.832552,21.444375],[-157.834215,21.446625],[-157.837125,21.450782],[-157.839375,21.454166],[-157.84135,21.457875],[-157.843591,21.462375],[-157.845703,21.466875],[-157.846125,21.467913],[-157.850944,21.482625],[-157.852875,21.489595],[-157.854207,21.496125],[-157.854896,21.500625],[-157.85487,21.502875],[-157.853298,21.507798],[-157.852307,21.511875],[-157.851902,21.514125],[-157.851771,21.515271],[-157.851542,21.518625],[-157.851542,21.520875],[-157.851974,21.525375],[-157.852467,21.528033],[-157.853443,21.532125],[-157.854178,21.534375],[-157.856002,21.537998],[-157.85769,21.54081],[-157.860397,21.544853],[-157.862306,21.547444],[-157.864518,21.550125],[-157.867505,21.553495],[-157.870875,21.557086]]]},"properties":{"contour":65}},{"type":"Feature","geometry":{"type":"MultiLineString","coordinates":[[[-157.927125,21.656282],[-157.928563,21.656687],[-157.932211,21.657539],[-157.942875,21.659596],[-157.945125,21.660167],[-157.947375,21.661153],[-157.949625,21.662266],[-157.952727,21.664023],[-157.955698,21.665552],[-157.960875,21.667774],[-157.964274,21.669375],[-157.968616,21.671625],[-157.973799,21.674451],[-157.978875,21.677014],[-157.981125,21.677969],[-157.983375,21.678802],[-157.986482,21.679768],[-157.987875,21.68013],[-157.990175,21.680575],[-157.994131,21.681119],[-157.999125,21.681478],[-158.003625,21.681459],[-158.006506,21.681256],[-158.008549,21.681049],[-158.012625,21.680393],[-158.017125,21.679239],[-158.021231,21.677981],[-158.024587,21.676837],[-158.029414,21.674914],[-158.030952,21.674202],[-158.035413,21.671913],[-158.038187,21.670187],[-158.040844,21.668344],[-158.043287,21.666287],[-158.04442,21.66517],[-158.045481,21.663981],[-158.046559,21.662625],[-158.048236,21.659986],[-158.049014,21.658514],[-158.05044,21.65544],[-158.052246,21.650496],[-158.054195,21.644625],[-158.055425,21.640125],[-158.055927,21.637875],[-158.056538,21.633375],[-158.056735,21.631125],[-158.057423,21.620077],[-158.057455,21.617625],[-158.05737,21.615375],[-158.057123,21.613125],[-158.056661,21.610875],[-158.0561,21.608625],[-158.054373,21.602877],[-158.053125,21.599439],[-158.049234,21.590016],[-158.047431,21.586125],[-158.043512,21.579375],[-158.041875,21.57635],[-158.041188,21.574875],[-158.038573,21.566927],[-158.035584,21.558666],[-158.032062,21.550938],[-158.028375,21.544332],[-158.023745,21.534375],[-158.023147,21.532125],[-158.022171,21.527625],[-158.020973,21.520875],[-158.020892,21.518625],[-158.020928,21.511875],[-158.020811,21.509625],[-158.020557,21.507375],[-158.019905,21.503405],[-158.019209,21.500625],[-158.018682,21.499068],[-158.017388,21.495862],[-158.015913,21.492836],[-158.014209,21.490041],[-158.012331,21.487419],[-158.011316,21.486184],[-158.009169,21.483831],[-158.006897,21.481603],[-158.005707,21.480543],[-158.001375,21.476953],[-157.997612,21.473625],[-157.990125,21.466316],[-157.987875,21.46397],[-157.983375,21.459039],[-157.979813,21.454687],[-157.974375,21.448428],[-157.972548,21.446202],[-157.970435,21.443815],[-157.967625,21.440813],[-157.966616,21.439875],[-157.965375,21.438869],[-157.960875,21.435431],[-157.958218,21.433125],[-157.953428,21.428625],[-157.948909,21.424125],[-157.947375,21.422508],[-157.945021,21.419729],[-157.93972,21.41378],[-157.937545,21.411455],[-157.933875,21.407739],[-157.930282,21.403875],[-157.918351,21.390149],[-157.91506,21.38669],[-157.912719,21.384531],[-157.910284,21.382466],[-157.904625,21.378036],[-157.895625,21.370525],[-157.893375,21.368529],[-157.888156,21.363375],[-157.882965,21.358035],[-157.879875,21.355017],[-157.876321,21.351179],[-157.872944,21.347806],[-157.869398,21.344602],[-157.866375,21.342038],[-157.863399,21.339351],[-157.859839,21.336375],[-157.857375,21.334168],[-157.852875,21.32991],[-157.851657,21.328593],[-157.849402,21.326348],[-157.847036,21.324214],[-157.844596,21.322154],[-157.84083,21.31917],[-157.834444,21.314306],[-157.831786,21.312464],[-157.828994,21.310756],[-157.828125,21.310298],[-157.824395,21.308605],[-157.822772,21.307978],[-157.813673,21.304875],[-157.804886,21.301114],[-157.801125,21.299681],[-157.798875,21.298945],[-157.796441,21.298309],[-157.792701,21.297549],[-157.787625,21.296942],[-157.785375,21.296539],[-157.778625,21.294725],[-157.776375,21.294314],[-157.774125,21.294048],[-157.771875,21.293937],[-157.769625,21.294007],[-157.767375,21.294233],[-157.757089,21.295875],[-157.744179,21.297429],[-157.740228,21.297978],[-157.736369,21.298619],[-157.730696,21.299696],[-157.727053,21.300553],[-157.723628,21.301628],[-157.722002,21.302252],[-157.720473,21.302973],[-157.719061,21.303811],[-157.717721,21.304721],[-157.71648,21.30573],[-157.715314,21.306814],[-157.714274,21.308024],[-157.713296,21.309375],[-157.712559,21.310809],[-157.712186,21.311625],[-157.711551,21.313875],[-157.711282,21.316125],[-157.711502,21.318375],[-157.711976,21.320625],[-157.712811,21.322875],[-157.713873,21.325125],[-157.714538,21.326212],[-157.716901,21.329625],[-157.719438,21.332562],[-157.721606,21.334894],[-157.725037,21.338213],[-157.730728,21.343125],[-157.73318,21.345375],[-157.73543,21.347625],[-157.737493,21.349875],[-157.747832,21.362669],[-157.752087,21.367413],[-157.758375,21.373997],[-157.760873,21.376875],[-157.762875,21.379509],[-157.764071,21.381375],[-157.765366,21.383625],[-157.767693,21.388125],[-157.771128,21.395622],[-157.773379,21.400121],[-157.775046,21.402954],[-157.777305,21.406125],[-157.780077,21.409173],[-157.782437,21.411313],[-157.784348,21.412875],[-157.784686,21.413564],[-157.785375,21.413705],[-157.790063,21.417375],[-157.792125,21.419166],[-157.796625,21.423841],[-157.79875,21.4265]]]},"properties":{"contour":50}},{"type":"Feature","geometry":{"type":"MultiLineString","coordinates":[[[-157.851733,21.289125],[-157.852371,21.289629],[-157.852875,21.289947],[-157.853855,21.290395],[-157.856564,21.292186],[-157.857855,21.293145],[-157.859015,21.294235],[-157.859625,21.295125],[-157.860893,21.295875],[-157.861621,21.296129],[-157.863001,21.296999],[-157.865591,21.298909],[-157.866375,21.29964],[-157.871933,21.302625],[-157.876048,21.304202],[-157.882651,21.307125],[-157.886625,21.309214],[-157.888875,21.31063],[-157.889742,21.310758],[-157.890253,21.311625],[-157.891125,21.31237]]]},"properties":{"contour":25}},{"type":"Feature","geometry":{"type":"MultiLineString","coordinates":[[[-158.092557,21.615375],[-158.091605,21.608625],[-158.089758,21.601875],[-158.08901,21.599625],[-158.088231,21.597375],[-158.087332,21.595125],[-158.083893,21.588375],[-158.080657,21.581625],[-158.079683,21.579375],[-158.078047,21.574875],[-158.076553,21.568125],[-158.076465,21.563625],[-158.076128,21.561375],[-158.076049,21.559125],[-158.076828,21.555828],[-158.077344,21.554094],[-158.078022,21.552522],[-158.078808,21.551058],[-158.080523,21.548273],[-158.081509,21.547009],[-158.082648,21.545898],[-158.084007,21.545007],[-158.085508,21.544258],[-158.086875,21.543688],[-158.089125,21.54293],[-158.091375,21.542498],[-158.095875,21.542496],[-158.098125,21.542655],[-158.100375,21.542981],[-158.104875,21.543919],[-158.113875,21.546388],[-158.118308,21.547875],[-158.122809,21.550125],[-158.127206,21.552545],[-158.131239,21.554625],[-158.138452,21.559125],[-158.139862,21.560138],[-158.14179,21.561375],[-158.143856,21.562894],[-158.146663,21.564587],[-158.148142,21.565358],[-158.151275,21.566725],[-158.152939,21.567311],[-158.154684,21.567816],[-158.158383,21.568618],[-158.16035,21.568899],[-158.167875,21.569618],[-158.185875,21.571942],[-158.188125,21.572421],[-158.191767,21.573484],[-158.194875,21.574233],[-158.199375,21.575122],[-158.201625,21.575437],[-158.203875,21.575651],[-158.206125,21.575727],[-158.208375,21.575689],[-158.212875,21.575259],[-158.217375,21.574162],[-158.221978,21.572728],[-158.226375,21.571149],[-158.228625,21.569988],[-158.231105,21.568355],[-158.232379,21.567379],[-158.233577,21.566327],[-158.234673,21.565173],[-158.235691,21.563941],[-158.236619,21.56262],[-158.237402,21.561375],[-158.237996,21.559497],[-158.238596,21.556875],[-158.238987,21.554625],[-158.239047,21.550125],[-158.238695,21.547875],[-158.237561,21.545625],[-158.236225,21.543375],[-158.234841,21.541125],[-158.233326,21.538875],[-158.233303,21.538697],[-158.233125,21.538587],[-158.231835,21.536625],[-158.231733,21.535767],[-158.230875,21.535207],[-158.226375,21.528419],[-158.224125,21.524538],[-158.222414,21.520875],[-158.221875,21.518617],[-158.220133,21.509625],[-158.219187,21.505563],[-158.218414,21.502875],[-158.217612,21.500625],[-158.21651,21.498375],[-158.215128,21.496122],[-158.213376,21.493875],[-158.211988,21.492512],[-158.210796,21.491454],[-158.209512,21.490488],[-158.206803,21.488697],[-158.205383,21.487867],[-158.200951,21.485549],[-158.192625,21.481682],[-158.189988,21.480375],[-158.184373,21.477377],[-158.179769,21.475231],[-158.178163,21.474587],[-158.174625,21.473326],[-158.170125,21.47194],[-158.164244,21.470506],[-158.158875,21.469412],[-158.156625,21.468756],[-158.151773,21.466875],[-158.147174,21.464625],[-158.142843,21.462375],[-158.138993,21.460125],[-158.13618,21.45807],[-158.133817,21.455933],[-158.131875,21.453906],[-158.129799,21.451125],[-158.128452,21.448875],[-158.127288,21.446712],[-158.126366,21.444375],[-158.125684,21.442125],[-158.125125,21.439832],[-158.124687,21.437625],[-158.124408,21.435375],[-158.124239,21.433125],[-158.124349,21.426375],[-158.124478,21.424125],[-158.125125,21.419625],[-158.125277,21.414973],[-158.125254,21.406125],[-158.125123,21.403873],[-158.12445,21.397125],[-158.124104,21.394875],[-158.123657,21.392625],[-158.123087,21.390375],[-158.121583,21.385875],[-158.120669,21.383581],[-158.118375,21.37876],[-158.116738,21.376262],[-158.115743,21.375007],[-158.114679,21.373821],[-158.113572,21.372678],[-158.11239,21.37161],[-158.111625,21.370967],[-158.110335,21.370125],[-158.109375,21.369575],[-158.107125,21.368555],[-158.104875,21.367739],[-158.102625,21.367446],[-158.100375,21.367338],[-158.098125,21.367411],[-158.095919,21.367919],[-158.093625,21.368767],[-158.091375,21.369737],[-158.089125,21.371045],[-158.086966,21.372466],[-158.084625,21.374208],[-158.083238,21.375488],[-158.081876,21.376875],[-158.080142,21.379125],[-158.077479,21.383625],[-158.076355,21.385875],[-158.075372,21.388125],[-158.074458,21.390375],[-158.073696,21.392625],[-158.071712,21.399375],[-158.070475,21.403875],[-158.069366,21.408375],[-158.067952,21.415125],[-158.066369,21.423869],[-158.064899,21.430875],[-158.064375,21.433025],[-158.062125,21.439983],[-158.061259,21.442125],[-158.059875,21.445044],[-158.058895,21.446625],[-158.057625,21.448426],[-158.055375,21.450663],[-158.053125,21.452757],[-158.050875,21.454704],[-158.048984,21.455984],[-158.046375,21.458192],[-158.044125,21.459431],[-158.041875,21.460191],[-158.039625,21.460643],[-158.037375,21.460961],[-158.035125,21.460605],[-158.030625,21.459348],[-158.028375,21.458524],[-158.023875,21.456487],[-158.021625,21.45538],[-158.017125,21.452969],[-158.009423,21.447577],[-158.006714,21.445786],[-158.001375,21.442432],[-157.994375,21.437625],[-157.987875,21.432742],[-157.983167,21.428833],[-157.974375,21.422124],[-157.968884,21.417375],[-157.963125,21.411894],[-157.956868,21.405632],[-157.952206,21.401294],[-157.947375,21.397111],[-157.94402,21.39373],[-157.936125,21.386244],[-157.933875,21.384038],[-157.928357,21.377893],[-157.92618,21.37557],[-157.923936,21.373315],[-157.920375,21.37008],[-157.919283,21.368967],[-157.916949,21.366801],[-157.906875,21.358137],[-157.901488,21.353012],[-157.896725,21.348775],[-157.893375,21.346],[-157.887179,21.340321],[-157.883401,21.337349],[-157.879875,21.334801],[-157.877083,21.332417],[-157.873424,21.329625],[-157.870761,21.327489],[-157.869476,21.326524],[-157.866375,21.324398],[-157.863047,21.321704],[-157.857952,21.317798],[-157.856627,21.316873],[-157.851159,21.313341],[-157.846125,21.310408],[-157.844691,21.309375],[-157.843021,21.307979],[-157.837759,21.304241],[-157.836395,21.303355],[-157.835099,21.302625],[-157.833615,21.301635],[-157.832188,21.300812],[-157.830375,21.29987],[-157.829162,21.299338],[-157.827525,21.298725],[-157.823625,21.297573],[-157.816875,21.296226],[-157.815928,21.295875],[-157.814625,21.295343],[-157.812375,21.294198],[-157.801125,21.288228],[-157.796625,21.286314],[-157.794375,21.285502],[-157.792125,21.284853],[-157.787625,21.283854],[-157.783125,21.283444],[-157.774388,21.282112],[-157.771875,21.281826],[-157.769625,21.281741],[-157.767375,21.28178],[-157.765125,21.281928],[-157.762875,21.282198],[-157.7589,21.2829],[-157.756125,21.283552],[-157.751625,21.284754],[-157.749375,21.285145],[-157.740375,21.285856],[-157.731375,21.287263],[-157.723492,21.287992],[-157.719509,21.288509],[-157.713849,21.289599],[-157.712019,21.290019],[-157.708488,21.290988],[-157.705079,21.292079],[-157.701813,21.293313],[-157.700276,21.294026],[-157.698815,21.294815],[-157.696081,21.296581],[-157.694152,21.298125],[-157.691858,21.300375],[-157.689959,21.302625],[-157.688876,21.304875],[-157.688065,21.307125],[-157.687515,21.309375],[-157.687315,21.311625],[-157.687365,21.313875],[-157.687569,21.316125],[-157.688802,21.320625],[-157.689567,21.322875],[-157.690488,21.325125],[-157.691605,21.327375],[-157.692952,21.329625],[-157.694865,21.332385],[-157.696825,21.334925],[-157.698898,21.337352],[-157.701051,21.339699],[-157.706497,21.345375],[-157.710356,21.349875],[-157.71338,21.354375],[-157.715796,21.358875],[-157.717803,21.363375],[-157.718656,21.365625],[-157.720771,21.371729],[-157.72284,21.376875],[-157.724425,21.381375],[-157.72618,21.385875],[-157.727695,21.390375],[-157.728137,21.392625],[-157.728545,21.396545],[-157.728586,21.397125],[-157.728424,21.399375]]]},"properties":{"contour":35}},{"type":"Feature","geometry":{"type":"MultiLineString","coordinates":[[[-157.828986,21.275625],[-157.82979,21.27621],[-157.831215,21.277035],[-157.832625,21.277552],[-157.832978,21.277522],[-157.834367,21.278383],[-157.835863,21.279137],[-157.837125,21.279717],[-157.837531,21.279719],[-157.837932,21.280125],[-157.841625,21.281939],[-157.842003,21.281997],[-157.842224,21.282375],[-157.843162,21.283088],[-157.848375,21.286338]]]},"properties":{"contour":25}},{"type":"Feature","geometry":{"type":"MultiLineString","coordinates":[[[-157.78953,21.25797],[-157.789875,21.258155],[-157.792125,21.258823],[-157.794623,21.259875],[-157.798875,21.261511],[-157.800256,21.262125],[-157.813102,21.268147],[-157.816099,21.269651],[-157.819125,21.270992],[-157.823776,21.273375],[-157.825875,21.274147]]]},"properties":{"contour":25}}]}